{"type":"FeatureCollection","features":[{"type":"Feature","geometry":{"type":"MultiPolygon","coordinates":[[[[-87.7,48.843],[-87.743,48.801],[-87.692,48.737],[-87.595,48.748],[-87.7,48.843]]],[[[-80.069,45.344],[-80.185,45.329],[-80.174,45.244],[-80.043,45.316],[-80.069,45.344]]],[[[-81.818,46.063],[-81.957,46.047],[-81.966,46.007],[-81.811,45.972],[-81.818,46.063]]],[[[-94.646,49.209],[-94.74,49.148],[-94.638,49.1],[-94.525,49.179],[-94.646,49.209]]],[[[-76.184,44.239],[-76.289,44.216],[-76.334,44.237],[-76.506,44.167],[-76.383,44.141],[-76.368,44.197],[-76.234,44.208],[-76.184,44.239]]],[[[-83.355,45.993],[-83.471,45.935],[-83.452,45.896],[-83.348,45.85],[-83.265,45.905],[-83.266,45.958],[-83.355,45.993]]],[[[-85.743,47.798],[-85.858,47.789],[-85.959,47.731],[-85.848,47.703],[-85.727,47.704],[-85.596,47.745],[-85.743,47.798]]],[[[-87.925,48.858],[-88.089,48.806],[-88.069,48.7],[-87.965,48.754],[-87.819,48.739],[-87.753,48.783],[-87.758,48.837],[-87.925,48.858]]],[[[-94.759,49.641],[-94.954,49.489],[-95.115,49.441],[-95.153,49.452],[-95.155,49.391],[-95.12,49.37],[-95.015,49.363],[-94.859,49.458],[-94.84,49.516],[-94.698,49.576],[-94.604,49.646],[-94.759,49.641]]],[[[-83.946,46.318],[-84.049,46.288],[-84.072,46.191],[-83.994,46.153],[-83.949,46.091],[-83.872,46.16],[-83.787,46.184],[-83.946,46.318]]],[[[-77.065,44.173],[-77.257,44.129],[-77.385,44.144],[-77.583,44.06],[-77.573,43.981],[-77.49,43.925],[-77.289,43.959],[-77.155,43.839],[-76.933,43.927],[-77.042,43.95],[-77.027,43.991],[-77.109,44.043],[-77.065,44.173]]],[[[-81.935,45.987],[-81.98,45.987],[-82.172,45.873],[-82.289,45.929],[-82.29,45.991],[-82.487,45.947],[-82.568,45.915],[-82.617,45.971],[-82.694,45.958],[-82.672,45.865],[-82.841,45.91],[-82.8,45.978],[-82.938,45.961],[-83.178,45.96],[-83.226,45.885],[-82.957,45.837],[-82.915,45.797],[-82.835,45.814],[-82.758,45.777],[-82.52,45.749],[-82.48,45.705],[-82.335,45.692],[-82.19,45.608],[-82.1,45.599],[-82.077,45.553],[-81.933,45.61],[-81.844,45.687],[-81.746,45.674],[-81.987,45.558],[-81.845,45.515],[-81.798,45.533],[-81.669,45.707],[-81.591,45.755],[-81.579,45.803],[-81.71,45.79],[-81.648,45.861],[-81.686,45.901],[-81.787,45.782],[-81.815,45.867],[-81.897,45.905],[-81.935,45.987]]],[[[-95.153,49.646],[-95.104,49.613],[-95.016,49.641],[-94.878,49.569],[-94.791,49.639],[-94.805,49.695],[-94.547,49.758],[-94.473,49.725],[-94.361,49.73],[-94.328,49.639],[-94.276,49.606],[-94.334,49.514],[-94.273,49.49],[-94.032,49.459],[-94.063,49.393],[-94.035,49.264],[-94.237,49.336],[-94.205,49.378],[-94.221,49.475],[-94.369,49.482],[-94.655,49.463],[-94.702,49.42],[-94.599,49.341],[-94.629,49.306],[-94.45,49.231],[-94.363,49.284],[-94.278,49.251],[-94.213,49.176],[-94.031,49.176],[-94.192,49.085],[-94.251,49.126],[-94.34,49.115],[-94.362,49.04],[-94.503,48.955],[-94.592,48.949],[-94.701,48.825],[-94.643,48.745],[-94.535,48.703],[-94.29,48.709],[-94.218,48.65],[-93.843,48.631],[-93.792,48.517],[-93.543,48.531],[-93.466,48.592],[-93.316,48.648],[-93.36,48.711],[-93.356,48.78],[-93.497,48.853],[-93.489,48.906],[-93.389,48.933],[-93.295,48.912],[-93.277,48.818],[-93.189,48.684],[-93.113,48.657],[-92.972,48.698],[-92.863,48.602],[-92.797,48.607],[-92.614,48.57],[-92.558,48.539],[-92.557,48.473],[-92.448,48.405],[-92.472,48.364],[-92.398,48.291],[-92.369,48.221],[-92.274,48.25],[-92.313,48.313],[-92.282,48.352],[-92.073,48.386],[-91.94,48.381],[-91.993,48.263],[-91.723,48.17],[-91.711,48.115],[-91.47,48.091],[-91.43,48.049],[-91.254,48.084],[-91.198,48.128],[-90.996,48.212],[-90.924,48.266],[-90.828,48.256],[-90.833,48.199],[-90.761,48.098],[-90.498,48.134],[-90.374,48.091],[-90.188,48.121],[-90.065,48.109],[-89.994,48.028],[-89.873,47.986],[-89.775,48.023],[-89.579,48.009],[-89.431,48.08],[-89.345,48.094],[-89.283,48.175],[-89.273,48.237],[-89.197,48.311],[-89.224,48.425],[-89.14,48.482],[-88.753,48.556],[-88.838,48.46],[-88.894,48.312],[-88.735,48.357],[-88.622,48.585],[-88.534,48.645],[-88.512,48.702],[-88.546,48.766],[-88.479,48.846],[-88.342,48.821],[-88.301,48.757],[-88.339,48.673],[-88.551,48.54],[-88.497,48.502],[-88.399,48.525],[-88.332,48.589],[-88.209,48.601],[-88.098,48.701],[-88.108,48.799],[-88.228,48.841],[-88.226,48.926],[-88.113,48.999],[-87.934,48.93],[-87.784,48.926],[-87.672,48.898],[-87.646,48.856],[-87.548,48.825],[-87.421,48.838],[-87.205,48.756],[-87.028,48.794],[-86.897,48.772],[-86.69,48.791],[-86.636,48.73],[-86.429,48.774],[-86.34,48.613],[-86.267,48.565],[-86.144,48.243],[-86.026,48.081],[-85.93,48.043],[-85.873,47.983],[-85.734,47.933],[-85.565,47.917],[-85.383,47.923],[-85.285,47.957],[-84.9,47.962],[-84.837,47.915],[-84.939,47.844],[-84.919,47.774],[-85.011,47.706],[-84.979,47.669],[-85.037,47.599],[-84.927,47.516],[-84.793,47.474],[-84.706,47.372],[-84.585,47.299],[-84.712,47.185],[-84.711,47.102],[-84.784,47.041],[-84.779,46.974],[-84.654,46.918],[-84.567,46.946],[-84.449,46.934],[-84.354,46.875],[-84.404,46.817],[-84.469,46.848],[-84.54,46.801],[-84.421,46.69],[-84.491,46.661],[-84.598,46.57],[-84.523,46.473],[-84.381,46.522],[-84.271,46.497],[-84.226,46.539],[-84.112,46.527],[-84.077,46.495],[-84.133,46.369],[-84.048,46.314],[-83.927,46.333],[-83.851,46.292],[-83.612,46.286],[-83.53,46.259],[-83.057,46.175],[-82.954,46.188],[-82.834,46.176],[-82.676,46.193],[-82.67,46.157],[-82.526,46.169],[-82.451,46.201],[-82.316,46.186],[-82.308,46.148],[-81.973,46.091],[-81.722,46.109],[-81.731,46.049],[-81.552,46.095],[-81.551,46.021],[-81.46,45.992],[-81.144,45.986],[-81.129,45.948],[-81.015,45.948],[-80.851,45.917],[-80.731,45.913],[-80.714,45.817],[-80.626,45.765],[-80.611,45.679],[-80.531,45.661],[-80.505,45.559],[-80.382,45.57],[-80.397,45.461],[-80.318,45.418],[-80.3,45.356],[-80.18,45.363],[-80.077,45.403],[-80.031,45.337],[-80.042,45.289],[-80.145,45.249],[-80.117,45.196],[-80.002,45.18],[-80.069,45.065],[-79.972,45.038],[-79.846,44.91],[-79.763,44.77],[-79.865,44.784],[-79.951,44.867],[-80.124,44.809],[-80.129,44.751],[-80.032,44.723],[-79.979,44.666],[-80.008,44.537],[-80.101,44.47],[-80.289,44.533],[-80.406,44.54],[-80.625,44.641],[-80.646,44.722],[-80.753,44.725],[-80.946,44.617],[-80.888,44.737],[-80.906,44.794],[-80.992,44.809],[-81.12,44.96],[-81.214,44.961],[-81.277,45.021],[-81.262,45.077],[-81.336,45.142],[-81.291,45.245],[-81.462,45.23],[-81.643,45.248],[-81.58,45.134],[-81.464,45.048],[-81.367,45.001],[-81.373,44.906],[-81.285,44.806],[-81.271,44.632],[-81.388,44.49],[-81.407,44.435],[-81.483,44.418],[-81.609,44.315],[-81.59,44.293],[-81.638,44.177],[-81.759,44.074],[-81.721,43.931],[-81.729,43.697],[-81.706,43.563],[-81.717,43.375],[-81.769,43.311],[-81.969,43.213],[-82.171,43.059],[-82.422,42.999],[-82.478,42.805],[-82.463,42.76],[-82.5,42.637],[-82.583,42.548],[-82.576,42.503],[-82.418,42.487],[-82.416,42.369],[-82.472,42.309],[-82.56,42.315],[-82.729,42.297],[-82.94,42.343],[-83.059,42.316],[-83.109,42.257],[-83.096,42.189],[-83.114,42.052],[-82.924,41.981],[-82.718,42.032],[-82.612,42.032],[-82.545,41.982],[-82.411,42.11],[-82.067,42.255],[-81.941,42.278],[-81.844,42.334],[-81.804,42.392],[-81.54,42.56],[-81.399,42.606],[-81.319,42.652],[-81.198,42.666],[-80.89,42.659],[-80.764,42.636],[-80.62,42.581],[-80.454,42.616],[-80.22,42.783],[-79.841,42.822],[-79.703,42.861],[-79.483,42.841],[-79.447,42.876],[-79.346,42.855],[-79.303,42.878],[-79.084,42.861],[-78.932,42.884],[-78.916,42.935],[-79.024,42.981],[-79.02,43.048],[-79.079,43.075],[-79.043,43.143],[-79.064,43.257],[-79.131,43.258],[-79.345,43.181],[-79.532,43.196],[-79.744,43.245],[-79.813,43.313],[-79.715,43.373],[-79.609,43.484],[-79.598,43.536],[-79.468,43.634],[-79.415,43.626],[-79.278,43.672],[-79.092,43.812],[-78.815,43.869],[-78.712,43.868],[-78.617,43.899],[-78.482,43.897],[-78.256,43.953],[-77.877,43.975],[-77.828,44.002],[-77.603,44.066],[-77.385,44.16],[-77.255,44.18],[-77.214,44.155],[-77.023,44.199],[-77.077,44.084],[-76.969,44.064],[-76.928,44.105],[-76.774,44.183],[-76.632,44.222],[-76.432,44.235],[-76.227,44.321],[-76.194,44.304],[-75.937,44.376],[-75.804,44.504],[-75.426,44.777],[-75.375,44.785],[-75.29,44.857],[-75.201,44.883],[-75.006,44.984],[-74.831,45.032],[-74.795,45.006],[-74.616,45.036],[-74.546,45.063],[-74.451,45.159],[-74.343,45.205],[-74.472,45.303],[-74.382,45.564],[-74.475,45.594],[-74.535,45.595],[-74.636,45.639],[-74.724,45.628],[-74.937,45.645],[-75.035,45.594],[-75.236,45.587],[-75.343,45.537],[-75.683,45.459],[-75.818,45.373],[-75.895,45.402],[-75.987,45.48],[-76.09,45.514],[-76.201,45.519],[-76.245,45.469],[-76.366,45.458],[-76.501,45.519],[-76.659,45.561],[-76.77,45.734],[-76.765,45.851],[-76.895,45.898],[-76.913,45.804],[-76.988,45.787],[-77.19,45.864],[-77.278,45.949],[-77.279,46.016],[-77.566,46.159],[-77.675,46.199],[-77.796,46.198],[-78.135,46.275],[-78.31,46.253],[-78.388,46.292],[-78.711,46.326],[-78.728,46.342],[-78.727,46.383],[-78.893,46.462],[-78.99,46.549],[-79.015,46.627],[-79.094,46.688],[-79.171,46.825],[-79.214,46.833],[-79.32,46.944],[-79.347,47.008],[-79.443,47.101],[-79.427,47.25],[-79.587,47.433],[-79.51,47.544],[-79.516,51.461],[-79.579,51.474],[-79.579,51.451],[-79.615,51.416],[-79.681,51.408],[-79.745,51.329],[-79.694,51.267],[-79.786,51.172],[-79.885,51.171],[-79.995,51.249],[-80.113,51.291],[-80.293,51.307],[-80.426,51.35],[-80.439,51.48],[-80.513,51.548],[-80.57,51.708],[-80.686,51.798],[-80.883,51.894],[-80.972,52.002],[-81.072,52.036],[-81.344,52.097],[-81.474,52.218],[-81.544,52.363],[-81.532,52.443],[-81.638,52.492],[-81.761,52.607],[-81.882,52.668],[-81.943,52.774],[-82.11,52.891],[-82.235,52.93],[-82.274,53.008],[-82.279,53.117],[-82.216,53.217],[-82.108,53.274],[-82.166,53.473],[-82.206,53.524],[-82.201,53.656],[-82.12,53.775],[-82.124,53.827],[-82.252,54.06],[-82.327,54.104],[-82.423,54.212],[-82.422,54.339],[-82.322,54.504],[-82.288,54.654],[-82.195,54.804],[-82.253,54.937],[-82.277,55.039],[-82.252,55.11],[-82.416,55.077],[-82.453,55.127],[-82.589,55.149],[-82.797,55.128],[-82.883,55.146],[-82.954,55.224],[-83.154,55.196],[-83.469,55.216],[-83.673,55.27],[-83.72,55.25],[-83.887,55.295],[-84.078,55.25],[-84.199,55.279],[-84.307,55.275],[-84.544,55.224],[-84.769,55.231],[-84.972,55.28],[-85.125,55.261],[-85.122,55.336],[-85.367,55.394],[-85.583,55.502],[-85.642,55.558],[-85.861,55.625],[-85.896,55.656],[-86.269,55.708],[-86.382,55.767],[-86.686,55.836],[-86.901,55.914],[-87.213,55.933],[-87.373,55.99],[-87.473,56.049],[-87.636,56.108],[-87.714,56.217],[-87.841,56.346],[-87.924,56.392],[-87.979,56.473],[-88.258,56.531],[-88.437,56.605],[-88.504,56.656],[-88.659,56.696],[-88.689,56.752],[-88.805,56.795],[-88.863,56.859],[-88.98,56.851],[-90.239,56.08],[-91.346,55.362],[-92.742,54.395],[-93.638,53.745],[-95.153,52.841],[-95.153,49.646]],[[-94.504,49.773],[-94.683,49.913],[-94.648,49.992],[-94.528,49.931],[-94.556,49.852],[-94.504,49.773]]]]},"properties":{"province":"Ontario","year":2025,"dollars_per_acre":21073,"source":"Statistics Canada 32-10-0047-01"}},{"type":"Feature","geometry":{"type":"Polygon","coordinates":[[[-102,60],[-109.638,60],[-110,60],[-110.005,49],[-101.362,48.999],[-101.362,49.178],[-101.391,49.178],[-101.393,49.533],[-101.418,49.533],[-101.418,49.887],[-101.448,49.887],[-101.447,50.241],[-101.477,50.241],[-101.477,50.594],[-101.509,50.594],[-101.509,50.948],[-101.539,50.949],[-101.539,51.302],[-101.571,51.302],[-101.578,51.969],[-101.61,51.969],[-101.609,52.318],[-101.638,52.318],[-101.638,52.667],[-101.672,52.667],[-101.672,53.016],[-101.701,53.016],[-101.701,53.366],[-101.736,53.366],[-101.735,53.711],[-101.771,53.711],[-101.771,54.064],[-101.81,54.064],[-101.81,54.414],[-101.847,54.414],[-101.847,54.763],[-101.885,54.763],[-101.885,55.112],[-101.924,55.112],[-101.924,55.46],[-101.964,55.46],[-101.964,55.809],[-102.004,55.809],[-102,60]]]},"properties":{"province":"Saskatchewan","year":2025,"dollars_per_acre":2943,"source":"Statistics Canada 32-10-0047-01"}},{"type":"Feature","geometry":{"type":"Polygon","coordinates":[[[-110.005,49],[-110,59.953],[-110,60],[-120,60],[-120,53.806],[-119.916,53.717],[-119.793,53.706],[-119.713,53.615],[-119.861,53.557],[-119.725,53.389],[-119.598,53.384],[-119.356,53.34],[-119.341,53.287],[-119.251,53.199],[-119.029,53.164],[-118.975,53.242],[-118.787,53.159],[-118.77,53.075],[-118.641,52.999],[-118.613,52.936],[-118.448,52.885],[-118.402,52.843],[-118.422,52.776],[-118.29,52.678],[-118.355,52.634],[-118.333,52.58],[-118.236,52.49],[-118.219,52.374],[-118.138,52.408],[-118.044,52.398],[-118.013,52.484],[-117.887,52.426],[-117.767,52.418],[-117.706,52.365],[-117.84,52.274],[-117.818,52.226],[-117.664,52.198],[-117.611,52.144],[-117.334,52.149],[-117.196,51.979],[-117.103,51.957],[-117.011,51.89],[-116.976,51.76],[-116.921,51.71],[-116.819,51.739],[-116.749,51.805],[-116.659,51.805],[-116.585,51.713],[-116.595,51.662],[-116.5,51.628],[-116.465,51.566],[-116.391,51.546],[-116.361,51.471],[-116.284,51.457],[-116.268,51.312],[-116.008,51.222],[-116.009,51.126],[-115.692,51.029],[-115.562,50.894],[-115.639,50.838],[-115.436,50.756],[-115.414,50.711],[-115.312,50.724],[-115.208,50.528],[-115.155,50.573],[-115.015,50.582],[-114.862,50.394],[-114.769,50.359],[-114.77,50.25],[-114.725,50.19],[-114.736,50.12],[-114.658,50.03],[-114.692,49.896],[-114.64,49.828],[-114.677,49.696],[-114.668,49.637],[-114.702,49.637],[-114.752,49.609],[-114.696,49.547],[-114.574,49.557],[-114.605,49.439],[-114.591,49.396],[-114.488,49.347],[-114.492,49.314],[-114.399,49.21],[-114.161,49.155],[-114.153,49.1],[-114.064,49.045],[-114.054,49.027],[-114.068,48.999],[-110.005,49]]]},"properties":{"province":"Alberta","year":2025,"dollars_per_acre":4367,"source":"Statistics Canada 32-10-0047-01"}}]}