{
"type": "FeatureCollection",
"name": "lands_branch_district",
"xy_coordinate_resolution": 1e-05,
"features": [
{ "type": "Feature", "id": 1, "properties": { "DISTRICT": 8 }, "geometry": { "type": "Polygon", "coordinates": [ [ [ -108.85294, 50.97225 ], [ -108.81197, 50.95289 ], [ -108.79497, 50.95557 ], [ -108.79444, 50.95358 ], [ -108.76698, 50.96336 ], [ -108.73666, 50.96569 ], [ -108.70423, 50.95369 ], [ -108.68519, 50.9511 ], [ -108.68278, 50.9476 ], [ -108.6663, 50.94213 ], [ -108.62668, 50.93797 ], [ -108.55415, 50.94466 ], [ -108.53946, 50.94035 ], [ -108.52279, 50.92871 ], [ -108.51584, 50.9277 ], [ -108.51586, 51.09609 ], [ -108.35307, 51.09608 ], [ -108.35294, 51.27073 ], [ -108.37132, 51.27074 ], [ -108.37129, 51.3582 ], [ -108.1135, 51.35817 ], [ -108.11338, 51.61981 ], [ -108.13044, 51.6198 ], [ -108.13045, 51.8815 ], [ -108.41409, 51.88154 ], [ -108.41418, 51.96891 ], [ -108.4311, 51.96892 ], [ -108.43133, 52.1435 ], [ -109.14601, 52.14339 ], [ -109.14568, 52.31827 ], [ -109.16984, 52.31827 ], [ -109.16973, 52.40573 ], [ -110.00507, 52.40483 ], [ -110.00518, 51.35778 ], [ -109.37933, 51.35824 ], [ -109.37937, 51.27087 ], [ -109.35314, 51.27087 ], [ -109.35305, 50.99585 ], [ -109.33541, 51.00839 ], [ -109.30497, 51.01711 ], [ -109.28707, 51.01664 ], [ -109.25757, 51.0086 ], [ -109.2298, 51.01509 ], [ -109.19377, 51.01019 ], [ -109.16489, 51.01435 ], [ -109.14466, 51.02301 ], [ -109.10845, 51.02967 ], [ -109.04873, 51.01806 ], [ -109.03144, 51.0259 ], [ -108.97247, 51.0266 ], [ -108.95038, 51.02361 ], [ -108.92611, 51.01482 ], [ -108.90316, 50.99411 ], [ -108.86282, 50.98032 ], [ -108.85294, 50.97225 ] ] ] } },
{ "type": "Feature", "id": 2, "properties": { "DISTRICT": 4 }, "geometry": { "type": "Polygon", "coordinates": [ [ [ -108.22822, 50.6629 ], [ -108.31677, 50.69826 ], [ -108.32903, 50.71147 ], [ -108.33175, 50.72793 ], [ -108.34132, 50.73492 ], [ -108.34558, 50.74399 ], [ -108.36343, 50.75724 ], [ -108.36633, 50.76714 ], [ -108.37078, 50.76524 ], [ -108.38423, 50.77611 ], [ -108.42411, 50.79093 ], [ -108.44046, 50.80276 ], [ -108.44234, 50.81966 ], [ -108.43068, 50.83411 ], [ -108.44807, 50.83494 ], [ -108.44228, 50.86814 ], [ -108.44839, 50.87624 ], [ -108.46883, 50.88993 ], [ -108.49776, 50.92051 ], [ -108.49798, 50.57225 ], [ -108.47964, 50.57208 ], [ -108.47993, 50.22257 ], [ -108.46206, 50.22252 ], [ -108.46229, 49.87319 ], [ -108.44421, 49.8731 ], [ -108.44452, 49.52365 ], [ -108.42766, 49.52369 ], [ -108.42724, 49.17447 ], [ -108.41025, 49.17431 ], [ -108.41008, 48.9995 ], [ -107.20891, 49.00008 ], [ -107.2089, 49.1744 ], [ -107.2176, 49.17441 ], [ -107.21751, 49.52364 ], [ -107.22401, 49.52365 ], [ -107.22389, 49.87301 ], [ -107.23368, 49.8732 ], [ -107.23352, 50.22243 ], [ -107.24234, 50.22244 ], [ -107.242, 50.572 ], [ -107.25142, 50.57201 ], [ -107.2514, 50.7448 ], [ -107.25746, 50.74047 ], [ -107.25348, 50.73794 ], [ -107.26157, 50.73816 ], [ -107.25994, 50.73608 ], [ -107.26603, 50.73081 ], [ -107.26343, 50.73424 ], [ -107.26383, 50.73522 ], [ -107.26787, 50.7315 ], [ -107.27294, 50.73374 ], [ -107.27314, 50.73049 ], [ -107.2768, 50.73004 ], [ -107.27104, 50.72961 ], [ -107.28131, 50.72813 ], [ -107.27904, 50.72516 ], [ -107.28431, 50.72632 ], [ -107.28246, 50.72336 ], [ -107.28981, 50.72142 ], [ -107.28414, 50.72077 ], [ -107.292, 50.72066 ], [ -107.30243, 50.71591 ], [ -107.30063, 50.71251 ], [ -107.30995, 50.71113 ], [ -107.31079, 50.70801 ], [ -107.31203, 50.71156 ], [ -107.31598, 50.71049 ], [ -107.3174, 50.70673 ], [ -107.32321, 50.70923 ], [ -107.32586, 50.70564 ], [ -107.33494, 50.71077 ], [ -107.33824, 50.7067 ], [ -107.34886, 50.71294 ], [ -107.35315, 50.70741 ], [ -107.37092, 50.7129 ], [ -107.37098, 50.70914 ], [ -107.37894, 50.71264 ], [ -107.38904, 50.70841 ], [ -107.38457, 50.71046 ], [ -107.38403, 50.71585 ], [ -107.39109, 50.7153 ], [ -107.38932, 50.71322 ], [ -107.39351, 50.71082 ], [ -107.39873, 50.71177 ], [ -107.39856, 50.71469 ], [ -107.40825, 50.7141 ], [ -107.41064, 50.71667 ], [ -107.4202, 50.71265 ], [ -107.43575, 50.71734 ], [ -107.4476, 50.70688 ], [ -107.45695, 50.70487 ], [ -107.45566, 50.7019 ], [ -107.45891, 50.69963 ], [ -107.46389, 50.70215 ], [ -107.46545, 50.69682 ], [ -107.46147, 50.69584 ], [ -107.46133, 50.69459 ], [ -107.47016, 50.69474 ], [ -107.46821, 50.68531 ], [ -107.4739, 50.68589 ], [ -107.47051, 50.68328 ], [ -107.47388, 50.68407 ], [ -107.48409, 50.67499 ], [ -107.48352, 50.671 ], [ -107.4803, 50.67024 ], [ -107.48457, 50.66866 ], [ -107.48328, 50.66639 ], [ -107.49354, 50.66474 ], [ -107.49274, 50.65933 ], [ -107.4947, 50.65488 ], [ -107.49842, 50.65492 ], [ -107.49755, 50.65253 ], [ -107.50583, 50.65327 ], [ -107.52775, 50.64529 ], [ -107.52952, 50.64725 ], [ -107.55295, 50.64436 ], [ -107.55726, 50.64157 ], [ -107.5588, 50.64454 ], [ -107.5649, 50.64234 ], [ -107.5817, 50.64881 ], [ -107.58348, 50.65281 ], [ -107.57729, 50.65599 ], [ -107.5848, 50.65686 ], [ -107.59156, 50.66397 ], [ -107.58702, 50.66443 ], [ -107.58905, 50.66591 ], [ -107.59777, 50.66498 ], [ -107.59457, 50.66923 ], [ -107.59766, 50.66815 ], [ -107.59975, 50.67197 ], [ -107.61437, 50.67025 ], [ -107.63587, 50.67816 ], [ -107.64385, 50.676 ], [ -107.65056, 50.67816 ], [ -107.6539, 50.67399 ], [ -107.66088, 50.67736 ], [ -107.67689, 50.67446 ], [ -107.67853, 50.67653 ], [ -107.69069, 50.66825 ], [ -107.69528, 50.67482 ], [ -107.70265, 50.66889 ], [ -107.71361, 50.67172 ], [ -107.72854, 50.66802 ], [ -107.72985, 50.67042 ], [ -107.74836, 50.66816 ], [ -107.74887, 50.67069 ], [ -107.75437, 50.66919 ], [ -107.76122, 50.67262 ], [ -107.75913, 50.67436 ], [ -107.76685, 50.67438 ], [ -107.77937, 50.68209 ], [ -107.8016, 50.68333 ], [ -107.80442, 50.6878 ], [ -107.81414, 50.6846 ], [ -107.82609, 50.68863 ], [ -107.83652, 50.6877 ], [ -107.83424, 50.68992 ], [ -107.83938, 50.6899 ], [ -107.83826, 50.69198 ], [ -107.86774, 50.69171 ], [ -107.87373, 50.69599 ], [ -107.87877, 50.69211 ], [ -107.89766, 50.6942 ], [ -107.89766, 50.69162 ], [ -107.90722, 50.6911 ], [ -107.94421, 50.67514 ], [ -107.94877, 50.66594 ], [ -107.97361, 50.65455 ], [ -108.0078, 50.65543 ], [ -108.0274, 50.66355 ], [ -108.03003, 50.66668 ], [ -108.02476, 50.66668 ], [ -108.02503, 50.6739 ], [ -108.08281, 50.68108 ], [ -108.12663, 50.67438 ], [ -108.13653, 50.67669 ], [ -108.16994, 50.67554 ], [ -108.1897, 50.66875 ], [ -108.22822, 50.6629 ] ] ] } },
{ "type": "Feature", "id": 3, "properties": { "DISTRICT": 3 }, "geometry": { "type": "Polygon", "coordinates": [ [ [ -106.97605, 50.82701 ], [ -106.99139, 50.8152 ], [ -106.98871, 50.80645 ], [ -106.99117, 50.7993 ], [ -107.00313, 50.79429 ], [ -106.99276, 50.79325 ], [ -106.99761, 50.79054 ], [ -106.99596, 50.78748 ], [ -107.00005, 50.7871 ], [ -106.99904, 50.78404 ], [ -107.02086, 50.77199 ], [ -107.02842, 50.76388 ], [ -107.03732, 50.76307 ], [ -107.0492, 50.75585 ], [ -107.0553, 50.75749 ], [ -107.07451, 50.75194 ], [ -107.07495, 50.75452 ], [ -107.08794, 50.75491 ], [ -107.10219, 50.7527 ], [ -107.10016, 50.75397 ], [ -107.10243, 50.75634 ], [ -107.11293, 50.7569 ], [ -107.11049, 50.75986 ], [ -107.1176, 50.75879 ], [ -107.11938, 50.76129 ], [ -107.11406, 50.76204 ], [ -107.11489, 50.76473 ], [ -107.12019, 50.76337 ], [ -107.12272, 50.76843 ], [ -107.12527, 50.76771 ], [ -107.12281, 50.7633 ], [ -107.13498, 50.76582 ], [ -107.14009, 50.77072 ], [ -107.13552, 50.77245 ], [ -107.15551, 50.773 ], [ -107.15629, 50.77593 ], [ -107.15162, 50.77626 ], [ -107.16067, 50.78403 ], [ -107.16644, 50.77833 ], [ -107.17981, 50.78465 ], [ -107.19956, 50.78284 ], [ -107.21348, 50.77803 ], [ -107.22769, 50.7823 ], [ -107.21379, 50.77488 ], [ -107.18888, 50.77751 ], [ -107.17867, 50.77381 ], [ -107.19285, 50.77523 ], [ -107.19876, 50.77046 ], [ -107.20427, 50.77207 ], [ -107.21571, 50.76879 ], [ -107.22249, 50.76459 ], [ -107.22005, 50.76327 ], [ -107.22167, 50.76076 ], [ -107.22992, 50.75755 ], [ -107.23345, 50.75941 ], [ -107.23231, 50.75408 ], [ -107.24663, 50.75109 ], [ -107.24635, 50.74675 ], [ -107.2514, 50.7448 ], [ -107.25142, 50.57201 ], [ -107.242, 50.572 ], [ -107.24234, 50.22244 ], [ -107.23352, 50.22243 ], [ -107.23368, 49.8732 ], [ -107.22389, 49.87301 ], [ -107.22401, 49.52365 ], [ -107.21751, 49.52364 ], [ -107.2176, 49.17441 ], [ -107.2089, 49.1744 ], [ -107.20891, 49.00008 ], [ -106.00545, 48.99956 ], [ -106.0053, 49.78571 ], [ -105.71023, 49.78467 ], [ -105.71048, 49.78886 ], [ -105.72405, 49.80468 ], [ -105.72632, 49.81712 ], [ -105.71009, 49.84045 ], [ -105.71157, 49.84471 ], [ -105.70332, 49.85832 ], [ -105.69719, 49.85773 ], [ -105.68696, 49.87209 ], [ -105.6917, 49.87209 ], [ -105.69197, 50.22172 ], [ -105.71811, 50.22176 ], [ -105.71814, 50.30932 ], [ -106.41734, 50.30987 ], [ -106.41736, 50.25164 ], [ -106.46327, 50.25154 ], [ -106.48623, 50.25158 ], [ -106.48614, 50.26623 ], [ -106.50914, 50.26629 ], [ -106.50898, 50.28076 ], [ -106.53199, 50.28077 ], [ -106.53196, 50.29543 ], [ -106.55492, 50.29544 ], [ -106.5549, 50.3099 ], [ -106.82989, 50.30992 ], [ -106.82986, 50.572 ], [ -106.83594, 50.57201 ], [ -106.8357, 50.65935 ], [ -106.9744, 50.65943 ], [ -106.97605, 50.82701 ] ] ] } },
{ "type": "Feature", "id": 4, "properties": { "DISTRICT": 10 }, "geometry": { "type": "Polygon", "coordinates": [ [ [ -106.14822, 52.49295 ], [ -106.14807, 52.58033 ], [ -106.15032, 52.58033 ], [ -106.15205, 52.57292 ], [ -106.16002, 52.5707 ], [ -106.19627, 52.54595 ], [ -106.24425, 52.52622 ], [ -106.25631, 52.50935 ], [ -106.25804, 52.50048 ], [ -106.30524, 52.48576 ], [ -106.30827, 52.48057 ], [ -106.3045, 52.47224 ], [ -106.30996, 52.46718 ], [ -106.32502, 52.46404 ], [ -106.33823, 52.4463 ], [ -106.34678, 52.43993 ], [ -106.34258, 52.40606 ], [ -106.37992, 52.4039 ], [ -106.38758, 52.39433 ], [ -106.40527, 52.38294 ], [ -106.40615, 52.36234 ], [ -106.43052, 52.34749 ], [ -106.44266, 52.33313 ], [ -106.46135, 52.31847 ], [ -106.43265, 52.31826 ], [ -106.43261, 51.96904 ], [ -106.42956, 51.96904 ], [ -106.42948, 51.88173 ], [ -106.28805, 51.88161 ], [ -106.28554, 51.35812 ], [ -106.42611, 51.35808 ], [ -106.42326, 51.09603 ], [ -106.65929, 51.09603 ], [ -106.68961, 51.07739 ], [ -106.71962, 51.06466 ], [ -106.71652, 51.06394 ], [ -106.73146, 51.05403 ], [ -106.7551, 51.05176 ], [ -106.76842, 51.05505 ], [ -106.79015, 51.04687 ], [ -106.81089, 51.04464 ], [ -106.83443, 51.04463 ], [ -106.84372, 51.04752 ], [ -106.85003, 51.05833 ], [ -106.84961, 51.06557 ], [ -106.85882, 51.07028 ], [ -106.85091, 51.0651 ], [ -106.85122, 51.04958 ], [ -106.85915, 51.04467 ], [ -106.87075, 51.04525 ], [ -106.87676, 51.04086 ], [ -106.87401, 51.03989 ], [ -106.87669, 51.03737 ], [ -106.87835, 51.03962 ], [ -106.88973, 51.03712 ], [ -106.88054, 51.0356 ], [ -106.88966, 51.03017 ], [ -106.88541, 51.02804 ], [ -106.89753, 51.02103 ], [ -106.90254, 51.00948 ], [ -106.91089, 51.01222 ], [ -106.91166, 51.00834 ], [ -106.91493, 51.01173 ], [ -106.91717, 51.01149 ], [ -106.91613, 51.00708 ], [ -106.91699, 51.01059 ], [ -106.92281, 51.01003 ], [ -106.91812, 51.00943 ], [ -106.9191, 51.0066 ], [ -106.93734, 51.01071 ], [ -106.95826, 51.00885 ], [ -106.95429, 51.00615 ], [ -106.93066, 51.00592 ], [ -106.92696, 51.00193 ], [ -106.90887, 51.00124 ], [ -106.91127, 50.99717 ], [ -106.91716, 50.99661 ], [ -106.90984, 50.99614 ], [ -106.91299, 50.994 ], [ -106.91473, 50.98772 ], [ -106.91057, 50.9915 ], [ -106.90953, 50.97645 ], [ -106.91956, 50.97696 ], [ -106.92366, 50.97125 ], [ -106.9402, 50.96718 ], [ -106.94149, 50.96572 ], [ -106.91815, 50.97055 ], [ -106.91147, 50.96835 ], [ -106.92024, 50.95462 ], [ -106.9191, 50.95037 ], [ -106.92704, 50.94954 ], [ -106.92222, 50.94744 ], [ -106.92361, 50.93894 ], [ -106.92657, 50.93896 ], [ -106.92732, 50.93222 ], [ -106.93451, 50.93053 ], [ -106.93111, 50.92843 ], [ -106.93959, 50.92142 ], [ -106.93956, 50.91747 ], [ -106.95139, 50.91575 ], [ -106.94976, 50.91404 ], [ -106.96474, 50.90696 ], [ -106.9729, 50.91633 ], [ -106.97703, 50.91547 ], [ -106.97278, 50.91431 ], [ -106.97161, 50.90943 ], [ -106.97383, 50.9089 ], [ -106.97012, 50.90601 ], [ -106.98016, 50.90334 ], [ -106.98018, 50.89973 ], [ -106.98588, 50.89973 ], [ -106.98589, 50.8951 ], [ -106.98988, 50.89668 ], [ -106.99075, 50.89626 ], [ -106.98791, 50.89373 ], [ -106.99057, 50.89193 ], [ -106.98722, 50.89165 ], [ -106.99281, 50.88789 ], [ -106.99024, 50.88179 ], [ -107.00302, 50.88304 ], [ -106.99531, 50.88137 ], [ -107.003, 50.87845 ], [ -106.99641, 50.87798 ], [ -106.99678, 50.87327 ], [ -106.99437, 50.87862 ], [ -106.99114, 50.87699 ], [ -106.9936, 50.86714 ], [ -106.99796, 50.8661 ], [ -106.99267, 50.86538 ], [ -106.98907, 50.86003 ], [ -106.99453, 50.8589 ], [ -106.98368, 50.85526 ], [ -106.98558, 50.84992 ], [ -106.99371, 50.84565 ], [ -106.98636, 50.84721 ], [ -106.99618, 50.84113 ], [ -106.98282, 50.84495 ], [ -106.98296, 50.84907 ], [ -106.97471, 50.8482 ], [ -106.9781, 50.85108 ], [ -106.97634, 50.8523 ], [ -106.96649, 50.84683 ], [ -106.96001, 50.8388 ], [ -106.96351, 50.83932 ], [ -106.96382, 50.8348 ], [ -106.97528, 50.8297 ], [ -106.97298, 50.82893 ], [ -106.9744, 50.65943 ], [ -106.8357, 50.65935 ], [ -106.83594, 50.57201 ], [ -106.82986, 50.572 ], [ -106.82989, 50.30992 ], [ -106.5549, 50.3099 ], [ -106.55492, 50.29544 ], [ -106.53196, 50.29543 ], [ -106.53199, 50.28077 ], [ -106.50898, 50.28076 ], [ -106.50914, 50.26629 ], [ -106.48614, 50.26623 ], [ -106.48623, 50.25158 ], [ -106.46327, 50.25154 ], [ -106.41736, 50.25164 ], [ -106.41734, 50.30987 ], [ -104.89319, 50.3094 ], [ -104.89307, 50.57152 ], [ -105.05542, 50.57156 ], [ -105.05533, 50.75577 ], [ -105.01992, 50.77564 ], [ -105.04403, 50.7834 ], [ -105.04474, 50.79083 ], [ -105.05449, 50.79667 ], [ -105.05535, 50.82686 ], [ -105.03642, 50.80166 ], [ -105.02051, 50.80973 ], [ -105.00499, 50.81233 ], [ -104.985, 50.80928 ], [ -104.96689, 50.80156 ], [ -104.96273, 50.80378 ], [ -104.95129, 50.79861 ], [ -104.9332, 50.79621 ], [ -104.92118, 50.79274 ], [ -104.91679, 50.78841 ], [ -104.91702, 50.92095 ], [ -104.79862, 50.921 ], [ -104.79859, 51.13938 ], [ -104.65903, 51.13939 ], [ -104.65911, 51.1829 ], [ -104.51989, 51.18289 ], [ -104.5194, 51.27033 ], [ -104.53832, 51.27033 ], [ -104.53846, 51.35786 ], [ -104.27048, 51.35764 ], [ -104.27057, 51.38711 ], [ -104.12885, 51.38689 ], [ -104.12904, 51.56359 ], [ -104.27041, 51.56379 ], [ -104.2704, 51.53262 ], [ -104.53844, 51.53255 ], [ -104.53808, 51.61973 ], [ -105.40432, 51.61991 ], [ -105.40466, 51.72401 ], [ -105.42836, 51.72821 ], [ -105.50283, 51.73243 ], [ -105.5421, 51.74961 ], [ -105.56488, 51.75559 ], [ -105.60558, 51.75757 ], [ -105.66752, 51.75274 ], [ -105.6637, 51.7506 ], [ -105.68805, 51.75059 ], [ -105.68807, 51.96902 ], [ -105.71767, 51.96891 ], [ -105.7175, 52.14371 ], [ -105.86023, 52.14368 ], [ -105.86027, 52.31828 ], [ -105.8907, 52.31827 ], [ -105.8906, 52.49283 ], [ -106.14822, 52.49295 ] ] ] } },
{ "type": "Feature", "id": 5, "properties": { "DISTRICT": 9 }, "geometry": { "type": "Polygon", "coordinates": [ [ [ -108.31677, 50.69826 ], [ -108.22822, 50.6629 ], [ -108.1897, 50.66875 ], [ -108.16994, 50.67554 ], [ -108.13653, 50.67669 ], [ -108.12663, 50.67438 ], [ -108.08281, 50.68108 ], [ -108.02503, 50.6739 ], [ -108.02476, 50.66668 ], [ -108.03003, 50.66668 ], [ -108.0274, 50.66355 ], [ -108.0078, 50.65543 ], [ -107.97361, 50.65455 ], [ -107.94877, 50.66594 ], [ -107.94421, 50.67514 ], [ -107.90722, 50.6911 ], [ -107.89766, 50.69162 ], [ -107.89766, 50.6942 ], [ -107.87877, 50.69211 ], [ -107.87373, 50.69599 ], [ -107.86774, 50.69171 ], [ -107.83826, 50.69198 ], [ -107.83938, 50.6899 ], [ -107.83424, 50.68992 ], [ -107.83652, 50.6877 ], [ -107.82609, 50.68863 ], [ -107.81414, 50.6846 ], [ -107.80442, 50.6878 ], [ -107.8016, 50.68333 ], [ -107.77937, 50.68209 ], [ -107.76685, 50.67438 ], [ -107.75913, 50.67436 ], [ -107.76122, 50.67262 ], [ -107.75437, 50.66919 ], [ -107.74887, 50.67069 ], [ -107.74836, 50.66816 ], [ -107.72985, 50.67042 ], [ -107.72854, 50.66802 ], [ -107.71361, 50.67172 ], [ -107.70265, 50.66889 ], [ -107.69528, 50.67482 ], [ -107.69069, 50.66825 ], [ -107.67853, 50.67653 ], [ -107.67689, 50.67446 ], [ -107.66088, 50.67736 ], [ -107.6539, 50.67399 ], [ -107.6508, 50.67813 ], [ -107.64385, 50.676 ], [ -107.63587, 50.67816 ], [ -107.61548, 50.67041 ], [ -107.59975, 50.67197 ], [ -107.59766, 50.66815 ], [ -107.59457, 50.66923 ], [ -107.59777, 50.66498 ], [ -107.58905, 50.66591 ], [ -107.58702, 50.66443 ], [ -107.59156, 50.66397 ], [ -107.5848, 50.65686 ], [ -107.57729, 50.65599 ], [ -107.58348, 50.65281 ], [ -107.5817, 50.64881 ], [ -107.5649, 50.64234 ], [ -107.52952, 50.64725 ], [ -107.52775, 50.64529 ], [ -107.51526, 50.65105 ], [ -107.49714, 50.65283 ], [ -107.49842, 50.65492 ], [ -107.4947, 50.65488 ], [ -107.49274, 50.65933 ], [ -107.49354, 50.66474 ], [ -107.48328, 50.66639 ], [ -107.48457, 50.66866 ], [ -107.4803, 50.67024 ], [ -107.48352, 50.671 ], [ -107.48409, 50.67499 ], [ -107.47388, 50.68407 ], [ -107.47051, 50.68328 ], [ -107.4739, 50.68589 ], [ -107.46821, 50.68531 ], [ -107.47016, 50.69474 ], [ -107.46133, 50.69459 ], [ -107.46545, 50.69682 ], [ -107.46389, 50.70215 ], [ -107.45891, 50.69963 ], [ -107.45566, 50.7019 ], [ -107.45695, 50.70487 ], [ -107.4476, 50.70688 ], [ -107.43575, 50.71734 ], [ -107.4202, 50.71265 ], [ -107.41064, 50.71667 ], [ -107.40825, 50.7141 ], [ -107.39856, 50.71469 ], [ -107.39873, 50.71177 ], [ -107.39351, 50.71082 ], [ -107.38932, 50.71322 ], [ -107.39109, 50.7153 ], [ -107.38403, 50.71585 ], [ -107.38457, 50.71046 ], [ -107.38904, 50.70841 ], [ -107.37894, 50.71264 ], [ -107.37098, 50.70914 ], [ -107.37092, 50.7129 ], [ -107.35315, 50.70741 ], [ -107.34886, 50.71294 ], [ -107.33824, 50.7067 ], [ -107.33494, 50.71077 ], [ -107.32586, 50.70564 ], [ -107.32321, 50.70923 ], [ -107.3174, 50.70673 ], [ -107.31224, 50.71165 ], [ -107.31079, 50.70801 ], [ -107.30995, 50.71113 ], [ -107.30063, 50.71251 ], [ -107.30243, 50.71591 ], [ -107.28414, 50.72077 ], [ -107.28981, 50.72142 ], [ -107.28246, 50.72336 ], [ -107.28431, 50.72632 ], [ -107.27904, 50.72516 ], [ -107.28131, 50.72813 ], [ -107.27104, 50.72961 ], [ -107.2768, 50.73004 ], [ -107.27314, 50.73049 ], [ -107.27294, 50.73374 ], [ -107.26787, 50.7315 ], [ -107.26383, 50.73522 ], [ -107.26603, 50.73081 ], [ -107.25994, 50.73608 ], [ -107.26157, 50.73816 ], [ -107.25348, 50.73794 ], [ -107.25746, 50.74047 ], [ -107.24635, 50.74675 ], [ -107.24663, 50.75109 ], [ -107.23231, 50.75408 ], [ -107.23345, 50.75941 ], [ -107.22992, 50.75755 ], [ -107.22167, 50.76076 ], [ -107.22007, 50.76666 ], [ -107.20444, 50.77204 ], [ -107.19876, 50.77046 ], [ -107.19285, 50.77523 ], [ -107.17867, 50.77381 ], [ -107.18888, 50.77751 ], [ -107.21379, 50.77488 ], [ -107.22787, 50.78228 ], [ -107.21348, 50.77803 ], [ -107.19956, 50.78284 ], [ -107.17981, 50.78465 ], [ -107.16644, 50.77833 ], [ -107.16067, 50.78403 ], [ -107.15162, 50.77626 ], [ -107.15629, 50.77593 ], [ -107.15551, 50.773 ], [ -107.13552, 50.77245 ], [ -107.14009, 50.77072 ], [ -107.13498, 50.76582 ], [ -107.12281, 50.7633 ], [ -107.12527, 50.76771 ], [ -107.12272, 50.76843 ], [ -107.12019, 50.76337 ], [ -107.11489, 50.76473 ], [ -107.11406, 50.76204 ], [ -107.11938, 50.76129 ], [ -107.1176, 50.75879 ], [ -107.11049, 50.75986 ], [ -107.11293, 50.7569 ], [ -107.10243, 50.75634 ], [ -107.10184, 50.75266 ], [ -107.08794, 50.75491 ], [ -107.06749, 50.75258 ], [ -107.02842, 50.76388 ], [ -107.02086, 50.77199 ], [ -106.99904, 50.78404 ], [ -107.00005, 50.7871 ], [ -106.99596, 50.78748 ], [ -106.99761, 50.79054 ], [ -106.99276, 50.79325 ], [ -107.00313, 50.79429 ], [ -106.99117, 50.7993 ], [ -106.98871, 50.80645 ], [ -106.99139, 50.8152 ], [ -106.98442, 50.81918 ], [ -106.98513, 50.82155 ], [ -106.98212, 50.82093 ], [ -106.9779, 50.82777 ], [ -106.97392, 50.82764 ], [ -106.97528, 50.8297 ], [ -106.96382, 50.8348 ], [ -106.96351, 50.83932 ], [ -106.96001, 50.8388 ], [ -106.96649, 50.84683 ], [ -106.97634, 50.8523 ], [ -106.9781, 50.85108 ], [ -106.97471, 50.8482 ], [ -106.98296, 50.84907 ], [ -106.98282, 50.84495 ], [ -106.99618, 50.84113 ], [ -106.98636, 50.84721 ], [ -106.99371, 50.84565 ], [ -106.98558, 50.84992 ], [ -106.98368, 50.85526 ], [ -106.99453, 50.8589 ], [ -106.98907, 50.86003 ], [ -106.99267, 50.86538 ], [ -106.99796, 50.8661 ], [ -106.9936, 50.86714 ], [ -106.99114, 50.87699 ], [ -106.99437, 50.87862 ], [ -106.99678, 50.87327 ], [ -106.99641, 50.87798 ], [ -106.99911, 50.87714 ], [ -107.003, 50.87845 ], [ -106.99531, 50.88137 ], [ -107.00302, 50.88304 ], [ -106.99024, 50.88179 ], [ -106.99281, 50.88789 ], [ -106.98722, 50.89165 ], [ -106.99057, 50.89193 ], [ -106.98791, 50.89373 ], [ -106.99075, 50.89626 ], [ -106.98589, 50.8951 ], [ -106.98588, 50.89973 ], [ -106.98018, 50.89973 ], [ -106.98016, 50.90334 ], [ -106.97012, 50.90601 ], [ -106.97383, 50.9089 ], [ -106.97161, 50.90943 ], [ -106.97278, 50.91431 ], [ -106.97703, 50.91547 ], [ -106.9729, 50.91633 ], [ -106.96474, 50.90696 ], [ -106.94976, 50.91404 ], [ -106.95139, 50.91575 ], [ -106.93956, 50.91747 ], [ -106.93959, 50.92142 ], [ -106.93111, 50.92843 ], [ -106.93451, 50.93053 ], [ -106.92732, 50.93222 ], [ -106.92657, 50.93896 ], [ -106.92361, 50.93894 ], [ -106.92222, 50.94744 ], [ -106.92704, 50.94954 ], [ -106.9191, 50.95037 ], [ -106.92024, 50.95462 ], [ -106.91147, 50.96835 ], [ -106.91815, 50.97055 ], [ -106.94126, 50.96626 ], [ -106.92366, 50.97125 ], [ -106.91956, 50.97696 ], [ -106.91192, 50.97488 ], [ -106.90868, 50.9775 ], [ -106.91057, 50.9915 ], [ -106.91473, 50.98772 ], [ -106.90984, 50.99614 ], [ -106.91716, 50.99661 ], [ -106.91127, 50.99717 ], [ -106.90887, 51.00124 ], [ -106.92696, 51.00193 ], [ -106.93066, 51.00592 ], [ -106.95429, 51.00615 ], [ -106.95851, 51.00725 ], [ -106.95849, 51.00851 ], [ -106.93734, 51.01071 ], [ -106.9191, 51.0066 ], [ -106.91812, 51.00943 ], [ -106.92281, 51.01003 ], [ -106.91699, 51.01059 ], [ -106.91613, 51.00708 ], [ -106.91717, 51.01149 ], [ -106.91166, 51.00834 ], [ -106.91089, 51.01222 ], [ -106.90254, 51.00948 ], [ -106.89753, 51.02103 ], [ -106.88541, 51.02804 ], [ -106.88966, 51.03017 ], [ -106.88054, 51.0356 ], [ -106.88622, 51.03574 ], [ -106.88973, 51.03712 ], [ -106.87835, 51.03962 ], [ -106.87669, 51.03737 ], [ -106.87401, 51.03989 ], [ -106.87676, 51.04086 ], [ -106.87075, 51.04525 ], [ -106.85915, 51.04467 ], [ -106.85122, 51.04958 ], [ -106.85091, 51.0651 ], [ -106.85882, 51.07028 ], [ -106.84961, 51.06557 ], [ -106.85003, 51.05833 ], [ -106.84372, 51.04752 ], [ -106.83443, 51.04463 ], [ -106.81089, 51.04464 ], [ -106.79015, 51.04687 ], [ -106.76842, 51.05505 ], [ -106.7551, 51.05176 ], [ -106.73146, 51.05403 ], [ -106.71652, 51.06394 ], [ -106.71962, 51.06466 ], [ -106.68961, 51.07739 ], [ -106.65929, 51.09603 ], [ -106.42326, 51.09603 ], [ -106.42611, 51.35808 ], [ -106.28554, 51.35812 ], [ -106.28805, 51.88161 ], [ -106.42948, 51.88173 ], [ -106.42956, 51.96904 ], [ -106.43261, 51.96904 ], [ -106.43265, 52.31826 ], [ -106.46135, 52.31847 ], [ -106.44266, 52.33313 ], [ -106.43052, 52.34749 ], [ -106.40615, 52.36234 ], [ -106.40527, 52.38294 ], [ -106.38758, 52.39433 ], [ -106.37992, 52.4039 ], [ -106.36816, 52.40655 ], [ -106.34724, 52.40467 ], [ -106.34301, 52.40561 ], [ -106.34605, 52.43474 ], [ -106.67629, 52.4346 ], [ -106.6763, 52.40548 ], [ -106.98881, 52.40566 ], [ -106.99593, 52.39427 ], [ -107.01126, 52.38461 ], [ -107.04507, 52.37369 ], [ -107.06516, 52.37516 ], [ -107.10347, 52.39308 ], [ -107.12242, 52.39287 ], [ -107.1356, 52.39025 ], [ -107.15203, 52.37296 ], [ -107.16654, 52.36927 ], [ -107.18058, 52.35911 ], [ -107.21651, 52.35302 ], [ -107.27396, 52.35444 ], [ -107.27542, 52.35242 ], [ -107.28751, 52.35545 ], [ -107.34765, 52.35713 ], [ -107.39492, 52.35244 ], [ -107.41482, 52.35594 ], [ -107.4477, 52.37822 ], [ -107.47671, 52.38645 ], [ -107.4804, 52.39015 ], [ -107.4932, 52.39613 ], [ -107.4779, 52.38681 ], [ -107.48719, 52.38806 ], [ -107.51522, 52.4034 ], [ -107.55356, 52.41812 ], [ -107.60454, 52.45203 ], [ -107.64608, 52.46795 ], [ -107.67755, 52.48781 ], [ -107.71781, 52.49699 ], [ -107.75383, 52.51457 ], [ -107.80814, 52.53337 ], [ -107.82177, 52.543 ], [ -107.83047, 52.55705 ], [ -107.83974, 52.56331 ], [ -107.85557, 52.56778 ], [ -107.967, 52.57863 ], [ -107.99272, 52.57782 ], [ -108.01888, 52.58272 ], [ -108.01905, 52.493 ], [ -108.16291, 52.49283 ], [ -108.16263, 52.31851 ], [ -108.14535, 52.31832 ], [ -108.14575, 52.10717 ], [ -108.16326, 52.10457 ], [ -108.19193, 52.11618 ], [ -108.18712, 52.12144 ], [ -108.19443, 52.12398 ], [ -108.1945, 52.12803 ], [ -108.20104, 52.13212 ], [ -108.20621, 52.13041 ], [ -108.20341, 52.12491 ], [ -108.21168, 52.12165 ], [ -108.22117, 52.12294 ], [ -108.21183, 52.12421 ], [ -108.21675, 52.12659 ], [ -108.23162, 52.12301 ], [ -108.25299, 52.12303 ], [ -108.27757, 52.12788 ], [ -108.25781, 52.13149 ], [ -108.26904, 52.13559 ], [ -108.3047, 52.13558 ], [ -108.30693, 52.13309 ], [ -108.33726, 52.13608 ], [ -108.32193, 52.1393 ], [ -108.33086, 52.14386 ], [ -108.36604, 52.14217 ], [ -108.38613, 52.14728 ], [ -108.39313, 52.14352 ], [ -108.43133, 52.1435 ], [ -108.4311, 51.96892 ], [ -108.41418, 51.96891 ], [ -108.41409, 51.88154 ], [ -108.13045, 51.8815 ], [ -108.13044, 51.6198 ], [ -108.11338, 51.61981 ], [ -108.1135, 51.35817 ], [ -108.37129, 51.3582 ], [ -108.37132, 51.27074 ], [ -108.35294, 51.27073 ], [ -108.35307, 51.09608 ], [ -108.51586, 51.09609 ], [ -108.51584, 50.9277 ], [ -108.49776, 50.92148 ], [ -108.46883, 50.88993 ], [ -108.44453, 50.87218 ], [ -108.44235, 50.86353 ], [ -108.44807, 50.83494 ], [ -108.43068, 50.83411 ], [ -108.44234, 50.81966 ], [ -108.44073, 50.80313 ], [ -108.42411, 50.79093 ], [ -108.39425, 50.78127 ], [ -108.37078, 50.76524 ], [ -108.36633, 50.76714 ], [ -108.36343, 50.75724 ], [ -108.34558, 50.74399 ], [ -108.34132, 50.73492 ], [ -108.33175, 50.72793 ], [ -108.32903, 50.71147 ], [ -108.31677, 50.69826 ] ] ] } },
{ "type": "Feature", "id": 6, "properties": { "DISTRICT": 7 }, "geometry": { "type": "Polygon", "coordinates": [ [ [ -108.85304, 50.9725 ], [ -108.86282, 50.98032 ], [ -108.90316, 50.99411 ], [ -108.92611, 51.01482 ], [ -108.95038, 51.02361 ], [ -108.97247, 51.0266 ], [ -109.03144, 51.0259 ], [ -109.04873, 51.01806 ], [ -109.10845, 51.02967 ], [ -109.14466, 51.02301 ], [ -109.16489, 51.01435 ], [ -109.19377, 51.01019 ], [ -109.2298, 51.01509 ], [ -109.25757, 51.0086 ], [ -109.28707, 51.01664 ], [ -109.30497, 51.01711 ], [ -109.33541, 51.00839 ], [ -109.35305, 50.99585 ], [ -109.35314, 51.27087 ], [ -109.37937, 51.27087 ], [ -109.37933, 51.35824 ], [ -110.00518, 51.35778 ], [ -110.00479, 50.13518 ], [ -109.6911, 50.1352 ], [ -109.69112, 50.2226 ], [ -109.71745, 50.22251 ], [ -109.71743, 50.31006 ], [ -109.09853, 50.3101 ], [ -109.09841, 50.57208 ], [ -108.49788, 50.57209 ], [ -108.49776, 50.92148 ], [ -108.52249, 50.92858 ], [ -108.53946, 50.94035 ], [ -108.55349, 50.94459 ], [ -108.62668, 50.93797 ], [ -108.65537, 50.94054 ], [ -108.73666, 50.96569 ], [ -108.76698, 50.96336 ], [ -108.79444, 50.95358 ], [ -108.79497, 50.95557 ], [ -108.81099, 50.95279 ], [ -108.85304, 50.9725 ] ] ] } },
{ "type": "Feature", "id": 7, "properties": { "DISTRICT": 16 }, "geometry": { "type": "Polygon", "coordinates": [ [ [ -108.6374, 53.27788 ], [ -109.07207, 53.27963 ], [ -109.07742, 53.28578 ], [ -109.07746, 53.36563 ], [ -109.10233, 53.36561 ], [ -109.10179, 53.71503 ], [ -109.12901, 53.71501 ], [ -109.12931, 53.8023 ], [ -110.00563, 53.80228 ], [ -110.00507, 52.40483 ], [ -109.16973, 52.40573 ], [ -109.16984, 52.31827 ], [ -109.14568, 52.31827 ], [ -109.14601, 52.14339 ], [ -108.39313, 52.14352 ], [ -108.38496, 52.14727 ], [ -108.36604, 52.14217 ], [ -108.33086, 52.14386 ], [ -108.32193, 52.1393 ], [ -108.33726, 52.13608 ], [ -108.32222, 52.13383 ], [ -108.26904, 52.13559 ], [ -108.25781, 52.13149 ], [ -108.27757, 52.12788 ], [ -108.25299, 52.12303 ], [ -108.23162, 52.12301 ], [ -108.21675, 52.12659 ], [ -108.21183, 52.12421 ], [ -108.22117, 52.12294 ], [ -108.21168, 52.12165 ], [ -108.20341, 52.12491 ], [ -108.20621, 52.13041 ], [ -108.20104, 52.13212 ], [ -108.1945, 52.12803 ], [ -108.19443, 52.12398 ], [ -108.18712, 52.12144 ], [ -108.19193, 52.11618 ], [ -108.16326, 52.10457 ], [ -108.14575, 52.10717 ], [ -108.14535, 52.31832 ], [ -108.16263, 52.31851 ], [ -108.16291, 52.49283 ], [ -108.01905, 52.493 ], [ -108.01888, 52.58272 ], [ -108.03834, 52.58256 ], [ -108.05493, 52.58877 ], [ -108.0953, 52.62059 ], [ -108.09598, 52.62405 ], [ -108.11996, 52.63893 ], [ -108.13271, 52.65662 ], [ -108.15936, 52.6748 ], [ -108.1816, 52.68107 ], [ -108.18209, 52.67812 ], [ -108.19057, 52.68689 ], [ -108.22423, 52.70162 ], [ -108.25069, 52.7227 ], [ -108.25718, 52.72477 ], [ -108.27038, 52.738 ], [ -108.27813, 52.7402 ], [ -108.2791, 52.74355 ], [ -108.29986, 52.75432 ], [ -108.31523, 52.75482 ], [ -108.32608, 52.75872 ], [ -108.32607, 52.763 ], [ -108.33872, 52.77317 ], [ -108.35419, 52.78106 ], [ -108.36228, 52.79216 ], [ -108.36475, 52.80679 ], [ -108.36061, 52.81813 ], [ -108.34676, 52.8335 ], [ -108.34492, 52.83949 ], [ -108.34714, 52.84558 ], [ -108.35859, 52.85497 ], [ -108.407, 52.8759 ], [ -108.41721, 52.88574 ], [ -108.44218, 52.89849 ], [ -108.49123, 52.9108 ], [ -108.53859, 52.93778 ], [ -108.59915, 52.9561 ], [ -108.61683, 52.96602 ], [ -108.61684, 53.01612 ], [ -108.63752, 53.0162 ], [ -108.6374, 53.27788 ] ] ] } },
{ "type": "Feature", "id": 8, "properties": { "DISTRICT": 1 }, "geometry": { "type": "Polygon", "coordinates": [ [ [ -101.44721, 49.88667 ], [ -101.44731, 50.06359 ], [ -101.86012, 50.06349 ], [ -102.00638, 50.06005 ], [ -102.00638, 50.04716 ], [ -104.054, 50.04703 ], [ -104.05395, 49.87219 ], [ -104.03912, 49.8722 ], [ -104.03891, 49.52266 ], [ -104.02451, 49.52265 ], [ -104.02433, 49.17396 ], [ -104.00997, 49.17396 ], [ -104.0099, 48.99985 ], [ -101.36201, 48.99948 ], [ -101.36209, 49.17772 ], [ -101.39223, 49.17773 ], [ -101.39258, 49.53274 ], [ -101.41779, 49.53273 ], [ -101.41755, 49.88668 ], [ -101.44721, 49.88667 ] ] ] } },
{ "type": "Feature", "id": 9, "properties": { "DISTRICT": 2 }, "geometry": { "type": "Polygon", "coordinates": [ [ [ -104.89319, 50.3094 ], [ -105.71814, 50.30932 ], [ -105.71811, 50.22176 ], [ -105.69197, 50.22172 ], [ -105.6917, 49.87209 ], [ -105.68696, 49.87209 ], [ -105.69719, 49.85773 ], [ -105.70332, 49.85832 ], [ -105.71157, 49.84471 ], [ -105.71009, 49.84045 ], [ -105.72632, 49.81712 ], [ -105.72405, 49.80468 ], [ -105.71048, 49.78886 ], [ -105.71023, 49.78467 ], [ -106.0053, 49.78571 ], [ -106.00545, 48.99956 ], [ -104.0099, 48.99985 ], [ -104.00997, 49.17396 ], [ -104.02433, 49.17396 ], [ -104.02451, 49.52265 ], [ -104.03891, 49.52266 ], [ -104.03912, 49.8722 ], [ -104.05395, 49.87219 ], [ -104.054, 50.04703 ], [ -104.87313, 50.04695 ], [ -104.8734, 50.22184 ], [ -104.89328, 50.22184 ], [ -104.89319, 50.3094 ] ] ] } },
{ "type": "Feature", "id": 10, "properties": { "DISTRICT": 13 }, "geometry": { "type": "Polygon", "coordinates": [ [ [ -105.0738, 52.97791 ], [ -105.22098, 52.9778 ], [ -105.22018, 52.92906 ], [ -105.48699, 52.92887 ], [ -105.48679, 52.75468 ], [ -105.77635, 52.75457 ], [ -105.77632, 52.66697 ], [ -105.7496, 52.66693 ], [ -105.74708, 52.66353 ], [ -105.74678, 52.49275 ], [ -105.8906, 52.49283 ], [ -105.8907, 52.31827 ], [ -105.86027, 52.31828 ], [ -105.86023, 52.14368 ], [ -105.7175, 52.14371 ], [ -105.71767, 51.96891 ], [ -105.68807, 51.96902 ], [ -105.68805, 51.75059 ], [ -105.6637, 51.7506 ], [ -105.66752, 51.75274 ], [ -105.60558, 51.75757 ], [ -105.56488, 51.75559 ], [ -105.5421, 51.74961 ], [ -105.50283, 51.73243 ], [ -105.42836, 51.72821 ], [ -105.40466, 51.72401 ], [ -105.40432, 51.61991 ], [ -104.53808, 51.61973 ], [ -104.53844, 51.53255 ], [ -104.2704, 51.53262 ], [ -104.27041, 51.56379 ], [ -104.12904, 51.56359 ], [ -104.12906, 51.65211 ], [ -103.70728, 51.65216 ], [ -103.70708, 51.96908 ], [ -103.72017, 51.96909 ], [ -103.72019, 52.31844 ], [ -103.69658, 52.31955 ], [ -103.70511, 52.32524 ], [ -103.70491, 52.32832 ], [ -103.72219, 52.33694 ], [ -103.71429, 52.34625 ], [ -103.71838, 52.35083 ], [ -103.71541, 52.36458 ], [ -103.72288, 52.36774 ], [ -103.72032, 52.36861 ], [ -103.72126, 52.37433 ], [ -103.72646, 52.37621 ], [ -103.72268, 52.37587 ], [ -103.72216, 52.37863 ], [ -103.71464, 52.36448 ], [ -103.7062, 52.36803 ], [ -103.70754, 52.37252 ], [ -103.71346, 52.3724 ], [ -103.71291, 52.38103 ], [ -103.70989, 52.38147 ], [ -103.72401, 52.38465 ], [ -103.71583, 52.38443 ], [ -103.71626, 52.3883 ], [ -103.72045, 52.38837 ], [ -103.71051, 52.39285 ], [ -103.7199, 52.39203 ], [ -103.72532, 52.39663 ], [ -103.71772, 52.39753 ], [ -103.7095, 52.3934 ], [ -103.71187, 52.39902 ], [ -103.70322, 52.40212 ], [ -103.70697, 52.39962 ], [ -103.70502, 52.39589 ], [ -103.70266, 52.39501 ], [ -103.70342, 52.40028 ], [ -103.69857, 52.40391 ], [ -103.73473, 52.40557 ], [ -103.73468, 52.66731 ], [ -103.74562, 52.6673 ], [ -103.74545, 52.92896 ], [ -104.92776, 52.92907 ], [ -104.92776, 52.9338 ], [ -105.07399, 52.93375 ], [ -105.0738, 52.97791 ] ] ] } },
{ "type": "Feature", "id": 11, "properties": { "DISTRICT": 11 }, "geometry": { "type": "Polygon", "coordinates": [ [ [ -101.73302, 51.37651 ], [ -101.73516, 51.38275 ], [ -101.7284, 51.38276 ], [ -101.73184, 51.38986 ], [ -102.00644, 51.38684 ], [ -104.27057, 51.38711 ], [ -104.27048, 51.35764 ], [ -104.53846, 51.35786 ], [ -104.53832, 51.27033 ], [ -104.5194, 51.27033 ], [ -104.51989, 51.18289 ], [ -104.65911, 51.1829 ], [ -104.65903, 51.13939 ], [ -104.79859, 51.13938 ], [ -104.79862, 50.921 ], [ -104.91702, 50.92095 ], [ -104.91679, 50.78841 ], [ -104.92118, 50.79274 ], [ -104.9332, 50.79621 ], [ -104.95129, 50.79861 ], [ -104.96273, 50.80378 ], [ -104.96689, 50.80156 ], [ -104.985, 50.80928 ], [ -105.00499, 50.81233 ], [ -105.02051, 50.80973 ], [ -105.03642, 50.80166 ], [ -105.05535, 50.82686 ], [ -105.05449, 50.79667 ], [ -105.04474, 50.79083 ], [ -105.04403, 50.7834 ], [ -105.01992, 50.77564 ], [ -105.05533, 50.75577 ], [ -105.05542, 50.57156 ], [ -104.89307, 50.57152 ], [ -104.89328, 50.22184 ], [ -104.8734, 50.22184 ], [ -104.87313, 50.04695 ], [ -102.00638, 50.04716 ], [ -102.00638, 50.06005 ], [ -101.86012, 50.06349 ], [ -101.44731, 50.06359 ], [ -101.44716, 50.24056 ], [ -101.47673, 50.24052 ], [ -101.47701, 50.5944 ], [ -101.50874, 50.59441 ], [ -101.50871, 50.94849 ], [ -101.53899, 50.94851 ], [ -101.53906, 51.27745 ], [ -101.55956, 51.28923 ], [ -101.64198, 51.30898 ], [ -101.64166, 51.30541 ], [ -101.64655, 51.30554 ], [ -101.66444, 51.31071 ], [ -101.66451, 51.31397 ], [ -101.69826, 51.32757 ], [ -101.70074, 51.32498 ], [ -101.7044, 51.33152 ], [ -101.7082, 51.33005 ], [ -101.71453, 51.33733 ], [ -101.71294, 51.33358 ], [ -101.71591, 51.33422 ], [ -101.71746, 51.33861 ], [ -101.71494, 51.33864 ], [ -101.7242, 51.34581 ], [ -101.72399, 51.36769 ], [ -101.7341, 51.368 ], [ -101.73282, 51.37529 ], [ -101.7258, 51.37555 ], [ -101.73302, 51.37651 ] ] ] } },
{ "type": "Feature", "id": 12, "properties": { "DISTRICT": 12 }, "geometry": { "type": "Polygon", "coordinates": [ [ [ -101.73555, 53.36591 ], [ -101.7355, 53.71496 ], [ -102.89007, 53.71493 ], [ -102.89063, 53.36539 ], [ -102.88049, 53.36537 ], [ -102.88034, 53.19109 ], [ -103.7584, 53.19087 ], [ -103.75844, 53.01625 ], [ -103.74491, 53.01625 ], [ -103.74562, 52.6673 ], [ -103.73468, 52.66731 ], [ -103.73473, 52.40557 ], [ -103.69857, 52.40391 ], [ -103.70342, 52.40028 ], [ -103.70266, 52.39501 ], [ -103.70697, 52.39962 ], [ -103.70558, 52.39949 ], [ -103.70322, 52.40212 ], [ -103.71187, 52.39902 ], [ -103.7095, 52.3934 ], [ -103.71772, 52.39753 ], [ -103.72532, 52.39663 ], [ -103.7199, 52.39203 ], [ -103.71051, 52.39285 ], [ -103.72045, 52.38837 ], [ -103.71626, 52.3883 ], [ -103.71583, 52.38443 ], [ -103.72401, 52.38465 ], [ -103.70989, 52.38147 ], [ -103.71291, 52.38103 ], [ -103.71346, 52.3724 ], [ -103.70754, 52.37252 ], [ -103.7062, 52.36803 ], [ -103.71464, 52.36448 ], [ -103.72216, 52.37863 ], [ -103.72268, 52.37587 ], [ -103.72646, 52.37621 ], [ -103.72126, 52.37433 ], [ -103.72032, 52.36861 ], [ -103.72288, 52.36774 ], [ -103.71541, 52.36458 ], [ -103.71838, 52.35083 ], [ -103.71429, 52.34625 ], [ -103.72219, 52.33694 ], [ -103.70491, 52.32832 ], [ -103.70511, 52.32524 ], [ -103.69658, 52.31955 ], [ -103.72019, 52.31844 ], [ -103.72017, 51.96909 ], [ -103.70708, 51.96908 ], [ -103.70728, 51.65216 ], [ -104.12906, 51.65211 ], [ -104.12885, 51.38689 ], [ -102.00644, 51.38684 ], [ -101.73184, 51.38986 ], [ -101.7284, 51.38276 ], [ -101.73516, 51.38275 ], [ -101.73287, 51.37556 ], [ -101.7258, 51.37528 ], [ -101.73282, 51.37529 ], [ -101.7341, 51.368 ], [ -101.72399, 51.36769 ], [ -101.7242, 51.34581 ], [ -101.71494, 51.33864 ], [ -101.71746, 51.33861 ], [ -101.71591, 51.33422 ], [ -101.71294, 51.33358 ], [ -101.71453, 51.33733 ], [ -101.7082, 51.33005 ], [ -101.7044, 51.33152 ], [ -101.70074, 51.32498 ], [ -101.69826, 51.32757 ], [ -101.66451, 51.31397 ], [ -101.66444, 51.31071 ], [ -101.64655, 51.30554 ], [ -101.64166, 51.30541 ], [ -101.64198, 51.30898 ], [ -101.55956, 51.28923 ], [ -101.53906, 51.27745 ], [ -101.53915, 51.30186 ], [ -101.57056, 51.30189 ], [ -101.57052, 51.65493 ], [ -101.57736, 51.65508 ], [ -101.57725, 51.96858 ], [ -101.60933, 51.96859 ], [ -101.60907, 52.31817 ], [ -101.63783, 52.31816 ], [ -101.63764, 52.66728 ], [ -101.67153, 52.66727 ], [ -101.67162, 53.01646 ], [ -101.70071, 53.01646 ], [ -101.70061, 53.3658 ], [ -101.73555, 53.36591 ] ] ] } },
{ "type": "Feature", "id": 13, "properties": { "DISTRICT": 6 }, "geometry": { "type": "Polygon", "coordinates": [ [ [ -108.47993, 50.22257 ], [ -108.47964, 50.57208 ], [ -109.09841, 50.57208 ], [ -109.09853, 50.3101 ], [ -109.71743, 50.31006 ], [ -109.71745, 50.22251 ], [ -109.69112, 50.2226 ], [ -109.69111, 50.0478 ], [ -109.28147, 50.04775 ], [ -109.2814, 49.8729 ], [ -109.25763, 49.87289 ], [ -109.25769, 49.69832 ], [ -108.85096, 49.69829 ], [ -108.8511, 49.52358 ], [ -108.44452, 49.52365 ], [ -108.44421, 49.8731 ], [ -108.46229, 49.87319 ], [ -108.46206, 50.22252 ], [ -108.47993, 50.22257 ] ] ] } },
{ "type": "Feature", "id": 14, "properties": { "DISTRICT": 15 }, "geometry": { "type": "Polygon", "coordinates": [ [ [ -106.75089, 53.8227 ], [ -106.7537, 54.15081 ], [ -107.35342, 54.15085 ], [ -107.35341, 54.06388 ], [ -107.34537, 54.06387 ], [ -107.34537, 53.9769 ], [ -107.79135, 53.97687 ], [ -107.79119, 53.80231 ], [ -107.93991, 53.80213 ], [ -107.94004, 53.7151 ], [ -107.9231, 53.71509 ], [ -107.92293, 53.62787 ], [ -108.16869, 53.62766 ], [ -108.16867, 53.60235 ], [ -108.20278, 53.56865 ], [ -108.23744, 53.52357 ], [ -108.23788, 53.51044 ], [ -108.22848, 53.50393 ], [ -108.2229, 53.50641 ], [ -108.22469, 53.49498 ], [ -108.22182, 53.49252 ], [ -108.20651, 53.4922 ], [ -108.19324, 53.49996 ], [ -108.19325, 53.497 ], [ -108.16867, 53.49702 ], [ -108.16869, 53.48255 ], [ -108.1939, 53.48236 ], [ -108.20479, 53.46788 ], [ -108.20768, 53.47198 ], [ -108.21375, 53.46626 ], [ -108.22284, 53.46346 ], [ -108.23007, 53.45011 ], [ -108.23007, 53.4526 ], [ -108.23936, 53.44535 ], [ -108.23524, 53.43455 ], [ -108.22729, 53.43304 ], [ -108.21948, 53.43799 ], [ -108.21809, 53.36533 ], [ -108.19866, 53.36535 ], [ -108.19882, 53.01638 ], [ -108.18113, 53.01634 ], [ -108.18103, 52.92912 ], [ -108.44716, 52.92925 ], [ -108.44726, 52.90065 ], [ -108.41721, 52.88574 ], [ -108.407, 52.8759 ], [ -108.36268, 52.85744 ], [ -108.34714, 52.84558 ], [ -108.34624, 52.83439 ], [ -108.361, 52.81745 ], [ -108.36477, 52.80086 ], [ -108.35419, 52.78106 ], [ -108.33872, 52.77317 ], [ -108.32607, 52.763 ], [ -108.32608, 52.75872 ], [ -108.29389, 52.75232 ], [ -108.2791, 52.74355 ], [ -108.27813, 52.7402 ], [ -108.27038, 52.738 ], [ -108.25718, 52.72477 ], [ -108.25069, 52.7227 ], [ -108.22367, 52.70127 ], [ -108.19057, 52.68689 ], [ -108.18198, 52.67807 ], [ -108.1816, 52.68107 ], [ -108.15936, 52.6748 ], [ -108.13271, 52.65662 ], [ -108.11971, 52.63871 ], [ -108.09598, 52.62405 ], [ -108.0953, 52.62059 ], [ -108.0519, 52.58702 ], [ -108.03834, 52.58256 ], [ -107.92581, 52.57481 ], [ -107.85557, 52.56778 ], [ -107.83974, 52.56331 ], [ -107.82882, 52.55541 ], [ -107.82177, 52.543 ], [ -107.80814, 52.53337 ], [ -107.75383, 52.51457 ], [ -107.71781, 52.49699 ], [ -107.67755, 52.48781 ], [ -107.64608, 52.46795 ], [ -107.60454, 52.45203 ], [ -107.55356, 52.41812 ], [ -107.51522, 52.4034 ], [ -107.48719, 52.38806 ], [ -107.4779, 52.38681 ], [ -107.4932, 52.39613 ], [ -107.47671, 52.38645 ], [ -107.4477, 52.37822 ], [ -107.42975, 52.36368 ], [ -107.40795, 52.35376 ], [ -107.39274, 52.35249 ], [ -107.34765, 52.35713 ], [ -107.28751, 52.35545 ], [ -107.27542, 52.35242 ], [ -107.27396, 52.35444 ], [ -107.21651, 52.35302 ], [ -107.18058, 52.35911 ], [ -107.16654, 52.36927 ], [ -107.15203, 52.37296 ], [ -107.1356, 52.39025 ], [ -107.12242, 52.39287 ], [ -107.10347, 52.39308 ], [ -107.06516, 52.37516 ], [ -107.04507, 52.37369 ], [ -107.01126, 52.38461 ], [ -106.99593, 52.39427 ], [ -106.98881, 52.40566 ], [ -106.6763, 52.40548 ], [ -106.67629, 52.4346 ], [ -106.5801, 52.43463 ], [ -106.57997, 52.66722 ], [ -106.58561, 52.66722 ], [ -106.58522, 52.79117 ], [ -106.60922, 52.79119 ], [ -106.60922, 52.80565 ], [ -106.61977, 52.80566 ], [ -106.615, 52.80923 ], [ -106.62118, 52.80795 ], [ -106.62118, 52.81105 ], [ -106.59968, 52.82135 ], [ -106.57828, 52.85533 ], [ -106.56976, 52.86317 ], [ -106.55251, 52.8721 ], [ -106.51924, 52.88107 ], [ -106.48692, 52.89521 ], [ -106.43687, 52.94159 ], [ -106.42122, 52.9854 ], [ -106.40658, 53.00232 ], [ -106.40221, 53.01237 ], [ -106.40349, 53.01677 ], [ -106.3937, 53.02658 ], [ -106.36541, 53.04772 ], [ -106.29426, 53.08637 ], [ -106.27303, 53.10368 ], [ -106.44316, 53.10377 ], [ -106.4425, 53.19131 ], [ -107.02622, 53.19216 ], [ -107.02625, 53.36633 ], [ -107.03825, 53.36632 ], [ -107.03814, 53.45327 ], [ -107.18564, 53.45327 ], [ -107.18547, 53.71505 ], [ -106.72268, 53.71558 ], [ -106.7274, 53.73003 ], [ -106.72514, 53.73258 ], [ -106.72893, 53.73407 ], [ -106.72685, 53.7357 ], [ -106.74648, 53.75006 ], [ -106.74533, 53.75299 ], [ -106.74919, 53.75424 ], [ -106.753, 53.76356 ], [ -106.77357, 53.77512 ], [ -106.77835, 53.78526 ], [ -106.77476, 53.78785 ], [ -106.77656, 53.79266 ], [ -106.76791, 53.80096 ], [ -106.77282, 53.80906 ], [ -106.77115, 53.81796 ], [ -106.75938, 53.82357 ], [ -106.75586, 53.82026 ], [ -106.75089, 53.8227 ] ] ] } },
{ "type": "Feature", "id": 15, "properties": { "DISTRICT": 5 }, "geometry": { "type": "Polygon", "coordinates": [ [ [ -108.85096, 49.69829 ], [ -109.25769, 49.69832 ], [ -109.25763, 49.87289 ], [ -109.2814, 49.8729 ], [ -109.28147, 50.04775 ], [ -109.69111, 50.0478 ], [ -109.6911, 50.1352 ], [ -110.00479, 50.13518 ], [ -110.00509, 48.99961 ], [ -108.41008, 48.9995 ], [ -108.41025, 49.17431 ], [ -108.42724, 49.17447 ], [ -108.42766, 49.52369 ], [ -108.8511, 49.52358 ], [ -108.85096, 49.69829 ] ] ] } },
{ "type": "Feature", "id": 16, "properties": { "DISTRICT": 14 }, "geometry": { "type": "Polygon", "coordinates": [ [ [ -105.13019, 53.97679 ], [ -106.00407, 53.97618 ], [ -106.00409, 53.56886 ], [ -106.02867, 53.56886 ], [ -106.02867, 53.57627 ], [ -106.07782, 53.57626 ], [ -106.07782, 53.58349 ], [ -106.54126, 53.58358 ], [ -106.54327, 53.58713 ], [ -106.54093, 53.58788 ], [ -106.54076, 53.59518 ], [ -106.54495, 53.60363 ], [ -106.55712, 53.61096 ], [ -106.55783, 53.61462 ], [ -106.57239, 53.6188 ], [ -106.59131, 53.63086 ], [ -106.59383, 53.63591 ], [ -106.60344, 53.63796 ], [ -106.60671, 53.64198 ], [ -106.62504, 53.64226 ], [ -106.64005, 53.63855 ], [ -106.65245, 53.64012 ], [ -106.6569, 53.64214 ], [ -106.65427, 53.64336 ], [ -106.65939, 53.64805 ], [ -106.66729, 53.64934 ], [ -106.66988, 53.65712 ], [ -106.68395, 53.66669 ], [ -106.6895, 53.67551 ], [ -106.70323, 53.68184 ], [ -106.7047, 53.68567 ], [ -106.72844, 53.70195 ], [ -106.7227, 53.70971 ], [ -106.72519, 53.71147 ], [ -106.7234, 53.71504 ], [ -107.18547, 53.71505 ], [ -107.18564, 53.45327 ], [ -107.03814, 53.45327 ], [ -107.03825, 53.36632 ], [ -107.02625, 53.36633 ], [ -107.02622, 53.19216 ], [ -106.4425, 53.19131 ], [ -106.44316, 53.10377 ], [ -106.27303, 53.10368 ], [ -106.29426, 53.08637 ], [ -106.36541, 53.04772 ], [ -106.3937, 53.02658 ], [ -106.40349, 53.01677 ], [ -106.40221, 53.01237 ], [ -106.40658, 53.00232 ], [ -106.42122, 52.9854 ], [ -106.43687, 52.94159 ], [ -106.48692, 52.89521 ], [ -106.51924, 52.88107 ], [ -106.55251, 52.8721 ], [ -106.56976, 52.86317 ], [ -106.57828, 52.85533 ], [ -106.59968, 52.82135 ], [ -106.62118, 52.81105 ], [ -106.62118, 52.80795 ], [ -106.615, 52.80923 ], [ -106.61977, 52.80566 ], [ -106.60922, 52.80565 ], [ -106.60922, 52.79119 ], [ -106.58522, 52.79117 ], [ -106.58561, 52.66722 ], [ -106.57997, 52.66722 ], [ -106.5801, 52.43463 ], [ -106.34612, 52.43474 ], [ -106.34586, 52.44133 ], [ -106.33823, 52.4463 ], [ -106.32502, 52.46404 ], [ -106.30996, 52.46718 ], [ -106.3042, 52.47259 ], [ -106.30827, 52.48057 ], [ -106.30524, 52.48576 ], [ -106.25804, 52.50048 ], [ -106.25631, 52.50935 ], [ -106.24425, 52.52622 ], [ -106.19627, 52.54595 ], [ -106.16002, 52.5707 ], [ -106.15205, 52.57292 ], [ -106.15032, 52.58033 ], [ -106.14807, 52.58033 ], [ -106.14822, 52.49295 ], [ -105.74678, 52.49275 ], [ -105.74708, 52.66353 ], [ -105.7496, 52.66693 ], [ -105.77632, 52.66697 ], [ -105.77635, 52.75457 ], [ -105.48679, 52.75468 ], [ -105.48699, 52.92887 ], [ -105.22018, 52.92906 ], [ -105.22098, 52.9778 ], [ -105.0738, 52.97791 ], [ -105.07399, 52.93375 ], [ -104.92776, 52.9338 ], [ -104.92776, 52.92907 ], [ -103.74545, 52.92896 ], [ -103.74491, 53.01625 ], [ -103.75844, 53.01625 ], [ -103.7584, 53.19087 ], [ -102.88034, 53.19109 ], [ -102.88049, 53.36537 ], [ -102.89063, 53.36539 ], [ -102.89007, 53.71493 ], [ -103.04772, 53.7149 ], [ -103.04772, 53.77947 ], [ -103.08598, 53.76212 ], [ -103.11556, 53.73706 ], [ -103.15935, 53.72243 ], [ -103.17746, 53.72759 ], [ -103.20898, 53.73033 ], [ -103.22317, 53.72038 ], [ -103.24463, 53.71625 ], [ -103.26024, 53.72082 ], [ -103.29606, 53.71573 ], [ -103.31489, 53.69872 ], [ -103.32577, 53.69473 ], [ -103.39215, 53.68773 ], [ -103.39806, 53.68554 ], [ -103.40483, 53.67703 ], [ -103.39717, 53.66592 ], [ -103.39779, 53.6592 ], [ -103.40733, 53.65872 ], [ -103.41056, 53.6622 ], [ -103.40779, 53.65753 ], [ -103.41478, 53.64965 ], [ -103.44575, 53.64468 ], [ -103.45761, 53.64911 ], [ -103.45264, 53.65493 ], [ -103.46142, 53.65152 ], [ -103.48953, 53.65257 ], [ -103.49721, 53.64613 ], [ -103.50653, 53.64449 ], [ -103.51465, 53.64581 ], [ -103.51458, 53.64911 ], [ -103.52072, 53.65197 ], [ -103.5345, 53.65479 ], [ -103.54118, 53.6542 ], [ -103.55201, 53.64404 ], [ -103.57293, 53.64715 ], [ -103.59404, 53.6423 ], [ -103.6272, 53.64058 ], [ -103.62708, 53.71448 ], [ -103.64229, 53.71449 ], [ -103.64238, 53.80189 ], [ -105.13027, 53.80213 ], [ -105.13019, 53.97679 ] ] ] } },
{ "type": "Feature", "id": 17, "properties": { "DISTRICT": 17 }, "geometry": { "type": "Polygon", "coordinates": [ [ [ -109.53297, 54.50004 ], [ -109.53298, 54.51467 ], [ -109.60855, 54.51468 ], [ -109.60857, 54.52913 ], [ -109.63376, 54.5291 ], [ -109.63378, 54.5582 ], [ -109.78499, 54.55821 ], [ -109.78501, 54.58729 ], [ -109.86059, 54.58731 ], [ -109.86059, 54.59472 ], [ -109.87304, 54.59472 ], [ -109.87303, 54.60195 ], [ -109.88579, 54.60194 ], [ -109.88579, 54.6164 ], [ -109.89823, 54.6164 ], [ -109.89823, 54.63103 ], [ -109.91099, 54.63103 ], [ -109.911, 54.64548 ], [ -109.9362, 54.64547 ], [ -109.9362, 54.65288 ], [ -110.00574, 54.65333 ], [ -110.00563, 53.80228 ], [ -109.12931, 53.8023 ], [ -109.12901, 53.71501 ], [ -109.10179, 53.71503 ], [ -109.10233, 53.36561 ], [ -109.07746, 53.36563 ], [ -109.07742, 53.28578 ], [ -109.07499, 53.28184 ], [ -109.06939, 53.27781 ], [ -108.6374, 53.27788 ], [ -108.63752, 53.0162 ], [ -108.61684, 53.01612 ], [ -108.61683, 52.96602 ], [ -108.59915, 52.9561 ], [ -108.53859, 52.93778 ], [ -108.50193, 52.91566 ], [ -108.48221, 52.90816 ], [ -108.44726, 52.90065 ], [ -108.44716, 52.92925 ], [ -108.18103, 52.92912 ], [ -108.18113, 53.01634 ], [ -108.19882, 53.01638 ], [ -108.19866, 53.36535 ], [ -108.21809, 53.36533 ], [ -108.21948, 53.43799 ], [ -108.22729, 53.43304 ], [ -108.23524, 53.43455 ], [ -108.23936, 53.44535 ], [ -108.23007, 53.4526 ], [ -108.23007, 53.45011 ], [ -108.22284, 53.46346 ], [ -108.21375, 53.46626 ], [ -108.20768, 53.47198 ], [ -108.20479, 53.46788 ], [ -108.1939, 53.48236 ], [ -108.16869, 53.48255 ], [ -108.16867, 53.49702 ], [ -108.19325, 53.497 ], [ -108.19324, 53.49996 ], [ -108.2033, 53.49305 ], [ -108.22097, 53.49228 ], [ -108.22469, 53.49498 ], [ -108.2229, 53.50641 ], [ -108.22848, 53.50393 ], [ -108.2374, 53.50957 ], [ -108.23936, 53.51539 ], [ -108.23625, 53.52609 ], [ -108.22304, 53.5451 ], [ -108.17616, 53.5975 ], [ -108.16867, 53.60235 ], [ -108.16869, 53.62766 ], [ -107.92293, 53.62787 ], [ -107.9231, 53.71509 ], [ -107.94004, 53.7151 ], [ -107.93991, 53.80213 ], [ -107.79119, 53.80231 ], [ -107.79135, 53.97687 ], [ -107.34537, 53.9769 ], [ -107.34537, 54.06387 ], [ -107.35341, 54.06388 ], [ -107.35342, 54.15085 ], [ -107.95332, 54.15081 ], [ -107.95326, 54.41271 ], [ -107.97039, 54.41272 ], [ -107.97041, 54.58729 ], [ -108.65091, 54.58737 ], [ -108.651, 54.51473 ], [ -108.8022, 54.51474 ], [ -108.80221, 54.48565 ], [ -109.15504, 54.4856 ], [ -109.15504, 54.50005 ], [ -109.53297, 54.50004 ] ] ] } }
]
}
