{
"type": "FeatureCollection",
"name": "lands_branch_region",
"xy_coordinate_resolution": 1e-05,
"features": [
{ "type": "Feature", "id": 1, "properties": { "REGION": "Region 1" }, "geometry": { "type": "Polygon", "coordinates": [ [ [ -108.85304, 50.9725 ], [ -108.86282, 50.98032 ], [ -108.90316, 50.99411 ], [ -108.92611, 51.01482 ], [ -108.95038, 51.02361 ], [ -108.97247, 51.0266 ], [ -109.03144, 51.0259 ], [ -109.04873, 51.01806 ], [ -109.10845, 51.02967 ], [ -109.14466, 51.02301 ], [ -109.16489, 51.01435 ], [ -109.19377, 51.01019 ], [ -109.2298, 51.01509 ], [ -109.25757, 51.0086 ], [ -109.28707, 51.01664 ], [ -109.30497, 51.01711 ], [ -109.33541, 51.00839 ], [ -109.35305, 50.99585 ], [ -109.35314, 51.27087 ], [ -109.37937, 51.27087 ], [ -109.37933, 51.35824 ], [ -110.00518, 51.35778 ], [ -110.00509, 48.99961 ], [ -106.00545, 48.99956 ], [ -106.0053, 49.78571 ], [ -105.71023, 49.78467 ], [ -105.71048, 49.78886 ], [ -105.72405, 49.80468 ], [ -105.72632, 49.81712 ], [ -105.71009, 49.84045 ], [ -105.71157, 49.84471 ], [ -105.70332, 49.85832 ], [ -105.69719, 49.85773 ], [ -105.68696, 49.87209 ], [ -105.6917, 49.87209 ], [ -105.69197, 50.22172 ], [ -105.71811, 50.22176 ], [ -105.71814, 50.30932 ], [ -106.41734, 50.30987 ], [ -106.41736, 50.25164 ], [ -106.46327, 50.25154 ], [ -106.48623, 50.25158 ], [ -106.48614, 50.26623 ], [ -106.50914, 50.26629 ], [ -106.50898, 50.28076 ], [ -106.53199, 50.28077 ], [ -106.53196, 50.29543 ], [ -106.55492, 50.29544 ], [ -106.5549, 50.3099 ], [ -106.82989, 50.30992 ], [ -106.82986, 50.572 ], [ -106.83594, 50.57201 ], [ -106.8357, 50.65935 ], [ -106.9744, 50.65943 ], [ -106.97631, 50.82807 ], [ -106.99139, 50.8152 ], [ -106.98871, 50.80645 ], [ -106.99117, 50.7993 ], [ -107.00313, 50.79429 ], [ -106.99276, 50.79325 ], [ -106.99761, 50.79054 ], [ -106.99596, 50.78748 ], [ -107.00005, 50.7871 ], [ -106.99904, 50.78404 ], [ -107.02086, 50.77199 ], [ -107.02842, 50.76388 ], [ -107.03732, 50.76307 ], [ -107.04843, 50.75609 ], [ -107.0553, 50.75749 ], [ -107.07451, 50.75194 ], [ -107.07495, 50.75452 ], [ -107.08794, 50.75491 ], [ -107.10219, 50.7527 ], [ -107.10016, 50.75397 ], [ -107.10243, 50.75634 ], [ -107.11293, 50.7569 ], [ -107.11049, 50.75986 ], [ -107.1176, 50.75879 ], [ -107.11938, 50.76129 ], [ -107.11406, 50.76204 ], [ -107.11489, 50.76473 ], [ -107.12019, 50.76337 ], [ -107.12272, 50.76843 ], [ -107.12527, 50.76771 ], [ -107.12281, 50.7633 ], [ -107.13498, 50.76582 ], [ -107.14009, 50.77072 ], [ -107.13552, 50.77245 ], [ -107.15551, 50.773 ], [ -107.15629, 50.77593 ], [ -107.15162, 50.77626 ], [ -107.16067, 50.78403 ], [ -107.16644, 50.77833 ], [ -107.17981, 50.78465 ], [ -107.19956, 50.78284 ], [ -107.21348, 50.77803 ], [ -107.22787, 50.78228 ], [ -107.21379, 50.77488 ], [ -107.18888, 50.77751 ], [ -107.17867, 50.77381 ], [ -107.19285, 50.77523 ], [ -107.19876, 50.77046 ], [ -107.20444, 50.77204 ], [ -107.22007, 50.76666 ], [ -107.22167, 50.76076 ], [ -107.22992, 50.75755 ], [ -107.23345, 50.75941 ], [ -107.23231, 50.75408 ], [ -107.24663, 50.75109 ], [ -107.24635, 50.74675 ], [ -107.25746, 50.74047 ], [ -107.25348, 50.73794 ], [ -107.26157, 50.73816 ], [ -107.25994, 50.73608 ], [ -107.26603, 50.73081 ], [ -107.26343, 50.73424 ], [ -107.26383, 50.73522 ], [ -107.26787, 50.7315 ], [ -107.27294, 50.73374 ], [ -107.27314, 50.73049 ], [ -107.2768, 50.73004 ], [ -107.27104, 50.72961 ], [ -107.28131, 50.72813 ], [ -107.27904, 50.72516 ], [ -107.28431, 50.72632 ], [ -107.28246, 50.72336 ], [ -107.28981, 50.72142 ], [ -107.28414, 50.72077 ], [ -107.30243, 50.71591 ], [ -107.30063, 50.71251 ], [ -107.30995, 50.71113 ], [ -107.31079, 50.70801 ], [ -107.31224, 50.71165 ], [ -107.3174, 50.70673 ], [ -107.32321, 50.70923 ], [ -107.32586, 50.70564 ], [ -107.33494, 50.71077 ], [ -107.33824, 50.7067 ], [ -107.34886, 50.71294 ], [ -107.35315, 50.70741 ], [ -107.37092, 50.7129 ], [ -107.37098, 50.70914 ], [ -107.37894, 50.71264 ], [ -107.38904, 50.70841 ], [ -107.38457, 50.71046 ], [ -107.38403, 50.71585 ], [ -107.39109, 50.7153 ], [ -107.38932, 50.71322 ], [ -107.39351, 50.71082 ], [ -107.39873, 50.71177 ], [ -107.39856, 50.71469 ], [ -107.40825, 50.7141 ], [ -107.41064, 50.71667 ], [ -107.4202, 50.71265 ], [ -107.43575, 50.71734 ], [ -107.4476, 50.70688 ], [ -107.45695, 50.70487 ], [ -107.45566, 50.7019 ], [ -107.45891, 50.69963 ], [ -107.46389, 50.70215 ], [ -107.46545, 50.69682 ], [ -107.46147, 50.69584 ], [ -107.46133, 50.69459 ], [ -107.47016, 50.69474 ], [ -107.46821, 50.68531 ], [ -107.4739, 50.68589 ], [ -107.47051, 50.68328 ], [ -107.47388, 50.68407 ], [ -107.48409, 50.67499 ], [ -107.48352, 50.671 ], [ -107.4803, 50.67024 ], [ -107.48457, 50.66866 ], [ -107.48328, 50.66639 ], [ -107.49354, 50.66474 ], [ -107.49274, 50.65933 ], [ -107.4947, 50.65488 ], [ -107.49842, 50.65492 ], [ -107.49714, 50.65283 ], [ -107.51526, 50.65105 ], [ -107.52775, 50.64529 ], [ -107.52952, 50.64725 ], [ -107.5649, 50.64234 ], [ -107.5817, 50.64881 ], [ -107.58348, 50.65281 ], [ -107.57729, 50.65599 ], [ -107.5848, 50.65686 ], [ -107.59156, 50.66397 ], [ -107.58702, 50.66443 ], [ -107.58905, 50.66591 ], [ -107.59777, 50.66498 ], [ -107.59457, 50.66923 ], [ -107.59766, 50.66815 ], [ -107.59975, 50.67197 ], [ -107.61548, 50.67041 ], [ -107.63587, 50.67816 ], [ -107.64385, 50.676 ], [ -107.6508, 50.67813 ], [ -107.6539, 50.67399 ], [ -107.66088, 50.67736 ], [ -107.67689, 50.67446 ], [ -107.67853, 50.67653 ], [ -107.69069, 50.66825 ], [ -107.69528, 50.67482 ], [ -107.70265, 50.66889 ], [ -107.71361, 50.67172 ], [ -107.72854, 50.66802 ], [ -107.72985, 50.67042 ], [ -107.74836, 50.66816 ], [ -107.74887, 50.67069 ], [ -107.75437, 50.66919 ], [ -107.76122, 50.67262 ], [ -107.75913, 50.67436 ], [ -107.76685, 50.67438 ], [ -107.77937, 50.68209 ], [ -107.8016, 50.68333 ], [ -107.80442, 50.6878 ], [ -107.81414, 50.6846 ], [ -107.82609, 50.68863 ], [ -107.83652, 50.6877 ], [ -107.83424, 50.68992 ], [ -107.83938, 50.6899 ], [ -107.83826, 50.69198 ], [ -107.86774, 50.69171 ], [ -107.87373, 50.69599 ], [ -107.87877, 50.69211 ], [ -107.89766, 50.6942 ], [ -107.89766, 50.69162 ], [ -107.90722, 50.6911 ], [ -107.94421, 50.67514 ], [ -107.94877, 50.66594 ], [ -107.97361, 50.65455 ], [ -108.0078, 50.65543 ], [ -108.0274, 50.66355 ], [ -108.03003, 50.66668 ], [ -108.02476, 50.66668 ], [ -108.02503, 50.6739 ], [ -108.08314, 50.68109 ], [ -108.12663, 50.67438 ], [ -108.13653, 50.67669 ], [ -108.16994, 50.67554 ], [ -108.1897, 50.66875 ], [ -108.22822, 50.6629 ], [ -108.31677, 50.69826 ], [ -108.32903, 50.71147 ], [ -108.33175, 50.72793 ], [ -108.34132, 50.73492 ], [ -108.34558, 50.74399 ], [ -108.36343, 50.75724 ], [ -108.36633, 50.76714 ], [ -108.37078, 50.76524 ], [ -108.38423, 50.77611 ], [ -108.42411, 50.79093 ], [ -108.44046, 50.80276 ], [ -108.44234, 50.81966 ], [ -108.43068, 50.83411 ], [ -108.44807, 50.83494 ], [ -108.44228, 50.86814 ], [ -108.44839, 50.87624 ], [ -108.48438, 50.90463 ], [ -108.49776, 50.92148 ], [ -108.52249, 50.92858 ], [ -108.53946, 50.94035 ], [ -108.55349, 50.94459 ], [ -108.62668, 50.93797 ], [ -108.65537, 50.94054 ], [ -108.73666, 50.96569 ], [ -108.76698, 50.96336 ], [ -108.79444, 50.95358 ], [ -108.79497, 50.95557 ], [ -108.81099, 50.95279 ], [ -108.85304, 50.9725 ] ] ] } },
{ "type": "Feature", "id": 2, "properties": { "REGION": "Region 2" }, "geometry": { "type": "Polygon", "coordinates": [ [ [ -101.73555, 53.36591 ], [ -101.7355, 53.71496 ], [ -102.89007, 53.71493 ], [ -102.89063, 53.36539 ], [ -102.88049, 53.36537 ], [ -102.88034, 53.19109 ], [ -103.7584, 53.19087 ], [ -103.75844, 53.01625 ], [ -103.74491, 53.01625 ], [ -103.74545, 52.92896 ], [ -104.92776, 52.92907 ], [ -104.92776, 52.9338 ], [ -105.07399, 52.93375 ], [ -105.0738, 52.97791 ], [ -105.22098, 52.9778 ], [ -105.22018, 52.92906 ], [ -105.48699, 52.92887 ], [ -105.48679, 52.75468 ], [ -105.77635, 52.75457 ], [ -105.77632, 52.66697 ], [ -105.7496, 52.66693 ], [ -105.74708, 52.66353 ], [ -105.74678, 52.49275 ], [ -105.8906, 52.49283 ], [ -105.8907, 52.31827 ], [ -105.86027, 52.31828 ], [ -105.86023, 52.14368 ], [ -105.7175, 52.14371 ], [ -105.71767, 51.96891 ], [ -105.68807, 51.96902 ], [ -105.68805, 51.75059 ], [ -105.6637, 51.7506 ], [ -105.66752, 51.75274 ], [ -105.60558, 51.75757 ], [ -105.56488, 51.75559 ], [ -105.5421, 51.74961 ], [ -105.50283, 51.73243 ], [ -105.42836, 51.72821 ], [ -105.40466, 51.72401 ], [ -105.40432, 51.61991 ], [ -104.53808, 51.61973 ], [ -104.53844, 51.53255 ], [ -104.2704, 51.53262 ], [ -104.27041, 51.56379 ], [ -104.12904, 51.56359 ], [ -104.12885, 51.38689 ], [ -104.27057, 51.38711 ], [ -104.27048, 51.35764 ], [ -104.53846, 51.35786 ], [ -104.53832, 51.27033 ], [ -104.5194, 51.27033 ], [ -104.51989, 51.18289 ], [ -104.65911, 51.1829 ], [ -104.65903, 51.13939 ], [ -104.79859, 51.13938 ], [ -104.79862, 50.921 ], [ -104.91702, 50.92095 ], [ -104.91679, 50.78841 ], [ -104.92118, 50.79274 ], [ -104.9332, 50.79621 ], [ -104.95129, 50.79861 ], [ -104.96273, 50.80378 ], [ -104.96689, 50.80156 ], [ -104.985, 50.80928 ], [ -105.00499, 50.81233 ], [ -105.02051, 50.80973 ], [ -105.03642, 50.80166 ], [ -105.05535, 50.82686 ], [ -105.05449, 50.79667 ], [ -105.04474, 50.79083 ], [ -105.04403, 50.7834 ], [ -105.01992, 50.77564 ], [ -105.05533, 50.75577 ], [ -105.05542, 50.57156 ], [ -104.89307, 50.57152 ], [ -104.89319, 50.3094 ], [ -105.71814, 50.30932 ], [ -105.71811, 50.22176 ], [ -105.69197, 50.22172 ], [ -105.6917, 49.87209 ], [ -105.68696, 49.87209 ], [ -105.69719, 49.85773 ], [ -105.70332, 49.85832 ], [ -105.71157, 49.84471 ], [ -105.71009, 49.84045 ], [ -105.72632, 49.81712 ], [ -105.72405, 49.80468 ], [ -105.71048, 49.78886 ], [ -105.71023, 49.78467 ], [ -106.0053, 49.78571 ], [ -106.00545, 48.99956 ], [ -101.36201, 48.99948 ], [ -101.36209, 49.17772 ], [ -101.39223, 49.17773 ], [ -101.39258, 49.53274 ], [ -101.41779, 49.53273 ], [ -101.41755, 49.88668 ], [ -101.44721, 49.88667 ], [ -101.44716, 50.24056 ], [ -101.47673, 50.24052 ], [ -101.47701, 50.5944 ], [ -101.50874, 50.59441 ], [ -101.50871, 50.94849 ], [ -101.53899, 50.94851 ], [ -101.53915, 51.30186 ], [ -101.57056, 51.30189 ], [ -101.57052, 51.65493 ], [ -101.57736, 51.65508 ], [ -101.57725, 51.96858 ], [ -101.60933, 51.96859 ], [ -101.60907, 52.31817 ], [ -101.63783, 52.31816 ], [ -101.63764, 52.66728 ], [ -101.67153, 52.66727 ], [ -101.67162, 53.01646 ], [ -101.70071, 53.01646 ], [ -101.70061, 53.3658 ], [ -101.73555, 53.36591 ] ] ] } },
{ "type": "Feature", "id": 3, "properties": { "REGION": "Region 3" }, "geometry": { "type": "Polygon", "coordinates": [ [ [ -108.85294, 50.97225 ], [ -108.81099, 50.95279 ], [ -108.79497, 50.95557 ], [ -108.79444, 50.95358 ], [ -108.76698, 50.96336 ], [ -108.73666, 50.96569 ], [ -108.65537, 50.94054 ], [ -108.62668, 50.93797 ], [ -108.55349, 50.94459 ], [ -108.53946, 50.94035 ], [ -108.52249, 50.92858 ], [ -108.49776, 50.92148 ], [ -108.48438, 50.90463 ], [ -108.44839, 50.87624 ], [ -108.44228, 50.86814 ], [ -108.44807, 50.83494 ], [ -108.43068, 50.83411 ], [ -108.44234, 50.81966 ], [ -108.44046, 50.80276 ], [ -108.42411, 50.79093 ], [ -108.38423, 50.77611 ], [ -108.37078, 50.76524 ], [ -108.36633, 50.76714 ], [ -108.36343, 50.75724 ], [ -108.34558, 50.74399 ], [ -108.34132, 50.73492 ], [ -108.33175, 50.72793 ], [ -108.32903, 50.71147 ], [ -108.31677, 50.69826 ], [ -108.22822, 50.6629 ], [ -108.1897, 50.66875 ], [ -108.16994, 50.67554 ], [ -108.13653, 50.67669 ], [ -108.12663, 50.67438 ], [ -108.08314, 50.68109 ], [ -108.02503, 50.6739 ], [ -108.02476, 50.66668 ], [ -108.03003, 50.66668 ], [ -108.0274, 50.66355 ], [ -108.0078, 50.65543 ], [ -107.97361, 50.65455 ], [ -107.94877, 50.66594 ], [ -107.94421, 50.67514 ], [ -107.90722, 50.6911 ], [ -107.89766, 50.69162 ], [ -107.89766, 50.6942 ], [ -107.87877, 50.69211 ], [ -107.87373, 50.69599 ], [ -107.86774, 50.69171 ], [ -107.83826, 50.69198 ], [ -107.83938, 50.6899 ], [ -107.83424, 50.68992 ], [ -107.83652, 50.6877 ], [ -107.82609, 50.68863 ], [ -107.81414, 50.6846 ], [ -107.80442, 50.6878 ], [ -107.8016, 50.68333 ], [ -107.77937, 50.68209 ], [ -107.76685, 50.67438 ], [ -107.75913, 50.67436 ], [ -107.76122, 50.67262 ], [ -107.75437, 50.66919 ], [ -107.74887, 50.67069 ], [ -107.74836, 50.66816 ], [ -107.72985, 50.67042 ], [ -107.72854, 50.66802 ], [ -107.71361, 50.67172 ], [ -107.70265, 50.66889 ], [ -107.69528, 50.67482 ], [ -107.69069, 50.66825 ], [ -107.67853, 50.67653 ], [ -107.67689, 50.67446 ], [ -107.66088, 50.67736 ], [ -107.6539, 50.67399 ], [ -107.6508, 50.67813 ], [ -107.64385, 50.676 ], [ -107.63587, 50.67816 ], [ -107.61548, 50.67041 ], [ -107.59975, 50.67197 ], [ -107.59766, 50.66815 ], [ -107.59457, 50.66923 ], [ -107.59777, 50.66498 ], [ -107.58905, 50.66591 ], [ -107.58702, 50.66443 ], [ -107.59156, 50.66397 ], [ -107.5848, 50.65686 ], [ -107.57729, 50.65599 ], [ -107.58348, 50.65281 ], [ -107.5817, 50.64881 ], [ -107.5649, 50.64234 ], [ -107.52952, 50.64725 ], [ -107.52775, 50.64529 ], [ -107.51526, 50.65105 ], [ -107.49714, 50.65283 ], [ -107.49842, 50.65492 ], [ -107.4947, 50.65488 ], [ -107.49274, 50.65933 ], [ -107.49354, 50.66474 ], [ -107.48328, 50.66639 ], [ -107.48457, 50.66866 ], [ -107.4803, 50.67024 ], [ -107.48352, 50.671 ], [ -107.48409, 50.67499 ], [ -107.47388, 50.68407 ], [ -107.47051, 50.68328 ], [ -107.4739, 50.68589 ], [ -107.46821, 50.68531 ], [ -107.47016, 50.69474 ], [ -107.46133, 50.69459 ], [ -107.46545, 50.69682 ], [ -107.46389, 50.70215 ], [ -107.45891, 50.69963 ], [ -107.45566, 50.7019 ], [ -107.45695, 50.70487 ], [ -107.4476, 50.70688 ], [ -107.43575, 50.71734 ], [ -107.4202, 50.71265 ], [ -107.41064, 50.71667 ], [ -107.40825, 50.7141 ], [ -107.39856, 50.71469 ], [ -107.39873, 50.71177 ], [ -107.39351, 50.71082 ], [ -107.38932, 50.71322 ], [ -107.39109, 50.7153 ], [ -107.38403, 50.71585 ], [ -107.38457, 50.71046 ], [ -107.38904, 50.70841 ], [ -107.37894, 50.71264 ], [ -107.37098, 50.70914 ], [ -107.37092, 50.7129 ], [ -107.35315, 50.70741 ], [ -107.34886, 50.71294 ], [ -107.33824, 50.7067 ], [ -107.33494, 50.71077 ], [ -107.32586, 50.70564 ], [ -107.32321, 50.70923 ], [ -107.3174, 50.70673 ], [ -107.31224, 50.71165 ], [ -107.31079, 50.70801 ], [ -107.30995, 50.71113 ], [ -107.30063, 50.71251 ], [ -107.30243, 50.71591 ], [ -107.28414, 50.72077 ], [ -107.28981, 50.72142 ], [ -107.28246, 50.72336 ], [ -107.28431, 50.72632 ], [ -107.27904, 50.72516 ], [ -107.28131, 50.72813 ], [ -107.27104, 50.72961 ], [ -107.2768, 50.73004 ], [ -107.27314, 50.73049 ], [ -107.27294, 50.73374 ], [ -107.26787, 50.7315 ], [ -107.26383, 50.73522 ], [ -107.26603, 50.73081 ], [ -107.25994, 50.73608 ], [ -107.26157, 50.73816 ], [ -107.25348, 50.73794 ], [ -107.25746, 50.74047 ], [ -107.24635, 50.74675 ], [ -107.24663, 50.75109 ], [ -107.23231, 50.75408 ], [ -107.23345, 50.75941 ], [ -107.22992, 50.75755 ], [ -107.22167, 50.76076 ], [ -107.22007, 50.76666 ], [ -107.20444, 50.77204 ], [ -107.19876, 50.77046 ], [ -107.19285, 50.77523 ], [ -107.17867, 50.77381 ], [ -107.18888, 50.77751 ], [ -107.21379, 50.77488 ], [ -107.22787, 50.78228 ], [ -107.21348, 50.77803 ], [ -107.19956, 50.78284 ], [ -107.17981, 50.78465 ], [ -107.16644, 50.77833 ], [ -107.16067, 50.78403 ], [ -107.15162, 50.77626 ], [ -107.15629, 50.77593 ], [ -107.15551, 50.773 ], [ -107.13552, 50.77245 ], [ -107.14009, 50.77072 ], [ -107.13498, 50.76582 ], [ -107.12281, 50.7633 ], [ -107.12527, 50.76771 ], [ -107.12272, 50.76843 ], [ -107.12019, 50.76337 ], [ -107.11489, 50.76473 ], [ -107.11406, 50.76204 ], [ -107.11938, 50.76129 ], [ -107.1176, 50.75879 ], [ -107.11049, 50.75986 ], [ -107.11293, 50.7569 ], [ -107.10243, 50.75634 ], [ -107.10016, 50.75397 ], [ -107.10219, 50.7527 ], [ -107.08794, 50.75491 ], [ -107.07495, 50.75452 ], [ -107.07451, 50.75194 ], [ -107.0553, 50.75749 ], [ -107.04843, 50.75609 ], [ -107.03732, 50.76307 ], [ -107.02842, 50.76388 ], [ -107.02086, 50.77199 ], [ -106.99904, 50.78404 ], [ -107.00005, 50.7871 ], [ -106.99596, 50.78748 ], [ -106.99761, 50.79054 ], [ -106.99276, 50.79325 ], [ -107.00313, 50.79429 ], [ -106.99117, 50.7993 ], [ -106.98871, 50.80645 ], [ -106.99139, 50.8152 ], [ -106.9761, 50.828 ], [ -106.9744, 50.65943 ], [ -106.8357, 50.65935 ], [ -106.83594, 50.57201 ], [ -106.82986, 50.572 ], [ -106.82989, 50.30992 ], [ -106.5549, 50.3099 ], [ -106.55492, 50.29544 ], [ -106.53196, 50.29543 ], [ -106.53199, 50.28077 ], [ -106.50898, 50.28076 ], [ -106.50914, 50.26629 ], [ -106.48614, 50.26623 ], [ -106.48623, 50.25158 ], [ -106.41736, 50.25164 ], [ -106.41734, 50.30987 ], [ -104.89319, 50.3094 ], [ -104.89307, 50.57152 ], [ -105.05542, 50.57156 ], [ -105.05533, 50.75577 ], [ -105.01992, 50.77564 ], [ -105.04403, 50.7834 ], [ -105.04474, 50.79083 ], [ -105.05449, 50.79667 ], [ -105.05535, 50.82686 ], [ -105.03642, 50.80166 ], [ -105.02051, 50.80973 ], [ -105.00499, 50.81233 ], [ -104.985, 50.80928 ], [ -104.96689, 50.80156 ], [ -104.96273, 50.80378 ], [ -104.95129, 50.79861 ], [ -104.9332, 50.79621 ], [ -104.92118, 50.79274 ], [ -104.91679, 50.78841 ], [ -104.91702, 50.92095 ], [ -104.79862, 50.921 ], [ -104.79859, 51.13938 ], [ -104.65903, 51.13939 ], [ -104.65911, 51.1829 ], [ -104.51989, 51.18289 ], [ -104.5194, 51.27033 ], [ -104.53832, 51.27033 ], [ -104.53846, 51.35786 ], [ -104.27048, 51.35764 ], [ -104.27057, 51.38711 ], [ -104.12885, 51.38689 ], [ -104.12904, 51.56359 ], [ -104.27041, 51.56379 ], [ -104.2704, 51.53262 ], [ -104.53844, 51.53255 ], [ -104.53808, 51.61973 ], [ -105.40432, 51.61991 ], [ -105.40466, 51.72401 ], [ -105.42836, 51.72821 ], [ -105.50283, 51.73243 ], [ -105.5421, 51.74961 ], [ -105.56488, 51.75559 ], [ -105.60558, 51.75757 ], [ -105.66752, 51.75274 ], [ -105.6637, 51.7506 ], [ -105.68805, 51.75059 ], [ -105.68807, 51.96902 ], [ -105.71767, 51.96891 ], [ -105.7175, 52.14371 ], [ -105.86023, 52.14368 ], [ -105.86027, 52.31828 ], [ -105.8907, 52.31827 ], [ -105.8906, 52.49283 ], [ -105.74678, 52.49275 ], [ -105.74708, 52.66353 ], [ -105.7496, 52.66693 ], [ -105.77632, 52.66697 ], [ -105.77635, 52.75457 ], [ -105.48679, 52.75468 ], [ -105.48699, 52.92887 ], [ -105.22018, 52.92906 ], [ -105.22098, 52.9778 ], [ -105.0738, 52.97791 ], [ -105.07399, 52.93375 ], [ -104.92776, 52.9338 ], [ -104.92776, 52.92907 ], [ -103.74545, 52.92896 ], [ -103.74491, 53.01625 ], [ -103.75844, 53.01625 ], [ -103.7584, 53.19087 ], [ -102.88034, 53.19109 ], [ -102.88049, 53.36537 ], [ -102.89063, 53.36539 ], [ -102.89007, 53.71493 ], [ -103.04772, 53.7149 ], [ -103.04772, 53.77947 ], [ -103.08598, 53.76212 ], [ -103.11556, 53.73706 ], [ -103.15935, 53.72243 ], [ -103.17746, 53.72759 ], [ -103.20898, 53.73033 ], [ -103.22317, 53.72038 ], [ -103.24463, 53.71625 ], [ -103.26024, 53.72082 ], [ -103.29606, 53.71573 ], [ -103.31489, 53.69872 ], [ -103.32577, 53.69473 ], [ -103.39215, 53.68773 ], [ -103.39806, 53.68554 ], [ -103.40483, 53.67703 ], [ -103.39717, 53.66592 ], [ -103.39779, 53.6592 ], [ -103.40733, 53.65872 ], [ -103.41056, 53.6622 ], [ -103.40779, 53.65753 ], [ -103.41478, 53.64965 ], [ -103.44575, 53.64468 ], [ -103.45761, 53.64911 ], [ -103.45264, 53.65493 ], [ -103.46142, 53.65152 ], [ -103.48953, 53.65257 ], [ -103.49721, 53.64613 ], [ -103.50653, 53.64449 ], [ -103.51465, 53.64581 ], [ -103.51458, 53.64911 ], [ -103.52072, 53.65197 ], [ -103.5345, 53.65479 ], [ -103.54118, 53.6542 ], [ -103.55201, 53.64404 ], [ -103.57293, 53.64715 ], [ -103.59404, 53.6423 ], [ -103.6272, 53.64058 ], [ -103.62708, 53.71448 ], [ -103.64229, 53.71449 ], [ -103.64238, 53.80189 ], [ -105.13027, 53.80213 ], [ -105.13019, 53.97679 ], [ -106.00407, 53.97618 ], [ -106.00409, 53.56886 ], [ -106.02867, 53.56886 ], [ -106.02867, 53.57627 ], [ -106.07782, 53.57626 ], [ -106.07782, 53.58349 ], [ -106.54126, 53.58358 ], [ -106.54327, 53.58713 ], [ -106.54093, 53.58788 ], [ -106.54076, 53.59518 ], [ -106.54495, 53.60363 ], [ -106.55712, 53.61096 ], [ -106.55783, 53.61462 ], [ -106.57239, 53.6188 ], [ -106.59131, 53.63086 ], [ -106.59383, 53.63591 ], [ -106.60344, 53.63796 ], [ -106.60671, 53.64198 ], [ -106.62504, 53.64226 ], [ -106.64005, 53.63855 ], [ -106.65245, 53.64012 ], [ -106.6569, 53.64214 ], [ -106.65427, 53.64336 ], [ -106.65939, 53.64805 ], [ -106.66729, 53.64934 ], [ -106.66988, 53.65712 ], [ -106.68395, 53.66669 ], [ -106.6895, 53.67551 ], [ -106.70323, 53.68184 ], [ -106.7047, 53.68567 ], [ -106.72844, 53.70195 ], [ -106.7227, 53.70971 ], [ -106.72521, 53.71325 ], [ -106.72216, 53.71642 ], [ -106.7274, 53.73003 ], [ -106.72514, 53.73258 ], [ -106.72893, 53.73407 ], [ -106.72678, 53.73561 ], [ -106.74648, 53.75006 ], [ -106.74533, 53.75299 ], [ -106.74919, 53.75424 ], [ -106.753, 53.76356 ], [ -106.75785, 53.76421 ], [ -106.75691, 53.76641 ], [ -106.77608, 53.77847 ], [ -106.77835, 53.78526 ], [ -106.77398, 53.79133 ], [ -106.77659, 53.7926 ], [ -106.77175, 53.79462 ], [ -106.77322, 53.79754 ], [ -106.76775, 53.80214 ], [ -106.77138, 53.80448 ], [ -106.77264, 53.81289 ], [ -106.76995, 53.8145 ], [ -106.77257, 53.81547 ], [ -106.76562, 53.82179 ], [ -106.75816, 53.82356 ], [ -106.75586, 53.82026 ], [ -106.75089, 53.8227 ], [ -106.75092, 54.06385 ], [ -106.75369, 54.06385 ], [ -106.7537, 54.15081 ], [ -107.95332, 54.15081 ], [ -107.95326, 54.41271 ], [ -107.97039, 54.41272 ], [ -107.97041, 54.58729 ], [ -108.65091, 54.58737 ], [ -108.651, 54.51473 ], [ -108.8022, 54.51474 ], [ -108.80221, 54.48565 ], [ -109.15504, 54.4856 ], [ -109.15504, 54.50005 ], [ -109.53297, 54.50004 ], [ -109.53298, 54.51467 ], [ -109.60855, 54.51468 ], [ -109.60857, 54.52913 ], [ -109.63376, 54.5291 ], [ -109.63378, 54.5582 ], [ -109.78499, 54.55821 ], [ -109.78501, 54.58729 ], [ -109.86059, 54.58731 ], [ -109.86059, 54.59472 ], [ -109.87304, 54.59472 ], [ -109.87303, 54.60195 ], [ -109.88579, 54.60194 ], [ -109.88579, 54.6164 ], [ -109.89823, 54.6164 ], [ -109.89823, 54.63103 ], [ -109.91099, 54.63103 ], [ -109.911, 54.64548 ], [ -109.9362, 54.64547 ], [ -109.9362, 54.65288 ], [ -110.00574, 54.65333 ], [ -110.00518, 51.35778 ], [ -109.37933, 51.35824 ], [ -109.37937, 51.27087 ], [ -109.35314, 51.27087 ], [ -109.35305, 50.99585 ], [ -109.33541, 51.00839 ], [ -109.30497, 51.01711 ], [ -109.28707, 51.01664 ], [ -109.25757, 51.0086 ], [ -109.2298, 51.01509 ], [ -109.19377, 51.01019 ], [ -109.16489, 51.01435 ], [ -109.14466, 51.02301 ], [ -109.10845, 51.02967 ], [ -109.04873, 51.01806 ], [ -109.03144, 51.0259 ], [ -108.97247, 51.0266 ], [ -108.95038, 51.02361 ], [ -108.92611, 51.01482 ], [ -108.90316, 50.99411 ], [ -108.86282, 50.98032 ], [ -108.85294, 50.97225 ] ] ] } }
]
}
